"Tipologia";"Denominazione";"longitudine";"Indirizzo";"gid";"Latitudine";"Comune";
"Privati federati";"Viale Africa, 10";"12.3732000000";"Viale Africa, 10";"1";"42.0579000000";"Formello";
"Privati federati";"Via Mazzini, 1";"12.8964000000";"Via Mazzini, 1";"2";"42.0175000000";"Vicovaro";
"Privati federati";"Via Domenico Jachino, 181";"12.4475000000";"Via Domenico Jachino, 181";"3";"41.8091000000";"Roma";
"Pubblici";"a.s.d Funsport";"12.4132000000";"via giuseppe de luca 30";"4";"41.9064000000";"Roma";
"Privati federati";"A.S.D. Bracelli Club";"12.4942000000";"Via Maria Battistini, 260";"5";"41.8905000000";"Roma";
"Privati federati";"ABC American Bar & Coffee";"12.5185000000";"Via Pian di Sco, 60";"6";"41.9621000000";"Roma";
"Pubblici";"Accademia di San Luca";"12.4835860000";"Piazza Dell'Accademia Di San Luca 77";"7";"41.9016600000";"Roma";
"Pubblici";"Accademia di San Luca - Biblioteca";"12.4836000000";"Via Accademia di San Luca";"8";"41.9022000000";"Roma";
"Pubblici";"Accademia di San Luca - Giardino";"12.4838000000";"Piazza  Accademia di San Luca";"9";"41.9018000000";"Roma";
"Pubblici";"Accademia Filarmonica Romana - Sala Casella";"12.4738485000";"Via Flaminia, 118";"10";"41.9166031000";"Roma";
"Pubblici";"Acquario Romano";"12.5030260000";"Piazza Manfredo Fanti, 47";"11";"41.8976790000";"Roma";
"Pubblici";"Acquario Romano";"12.5027950000";"Piazza Manfredo Fanti, 47";"12";"41.8979000000";"Roma";
"Privati federati";"Aeffe";"12.5094000000";"Via Satrico,83";"13";"41.8763000000";"Roma";
"Privati federati";"Agriturismo Casale di Trigoria";"12.4842980000";"Via Grotte Di Penseroni 14";"14";"41.7543550000";"Roma";
"Privati federati";"Agriturismo Casale di Trigoria";"12.4842980000";"Via Grotte Dei Penseroni 14";"15";"41.7543550000";"Roma";
"Privati federati";"Agriturismo Corte in fiore";"12.5677080000";"Via Degli Olivi 16";"16";"41.5588430000";"Ardea";
"Privati federati";"Agriturismo Corte in fiore";"12.5677080000";"Via Degli Olivi 16";"17";"41.5588430000";"Ardea";
"Privati federati";"Agriturismo Zugarelli";"12.2772000000";"via di San francesco 2590";"18";"42.0726000000";"Anguillara Sabazia";
"Privati federati";"Alma Nuoto";"12.5541690000";"Viale Dei Consoli, 24";"19";"41.8635280000";"Roma";
"Privati federati";"Antico bar dell'orso";"12.4733770000";"Via Dell'orso 30";"20";"41.9018240000";"Roma";
"Pubblici";"Antico Caffè Castellino";"12.4827490000";"Via Cesare Battisti,, 135b";"21";"41.8968211000";"Roma";
"Pubblici";"Antico Caffè della pace";"12.4710273000";"Via della Pace, 5";"22";"41.8993729000";"Roma";
"Privati federati";"Arca di Capena (piano terra)";"12.5833000000";"Via Tiberina 73 A";"23";"42.1072000000";"Capena";
"Pubblici";"Archivio Storico";"12.1769150000";"Piazza Mazzini";"24";"42.1041592000";"Bracciano";
"Privati federati";"Area Sporting Club";"12.4450480000";"Via Della Mendola 288";"25";"41.9486620000";"Roma";
"Privati federati";"Area Sporting Club";"12.4450480000";"Via Della Mendola 288";"26";"41.9486620000";"Roma";
"Pubblici";"Area Verde - Bar Dolce e Salato";"12.5764824000";"Viale Battista Bardanzellu, 136";"27";"41.9147814000";"Roma";
"Pubblici";"Area Verde - Bar Dolce e Salato";"12.5764824000";"Viale Battista Bardanzellu, 136";"28";"41.9147814000";"Roma";
"Pubblici";"Area Verde - Chiosco bar";"12.4853547000";"Via Duccio di Buoninsegna, 115";"29";"41.8551485000";"Roma";
"Pubblici";"Area verde - Scuola primaria G.Gesmundo";"12.5897361000";"Piazza Cesare De Cupis, 20";"30";"41.9042586000";"Roma";
"Pubblici";"Area Verde - Tree bar";"12.4712670000";"Via Flaminia 226";"31";"41.9229920000";"Roma";
"Privati federati";"ASD De Rossi Fitness & Wellness";"12.5235000000";"Via Appia Nuova 464";"32";"41.8741000000";"Roma";
"Privati federati";"ASD Dojo zen";"12.5125810000";"Via degli equi 22";"33";"41.8968700000";"Roma";
"Pubblici";"Asilo Nido";"12.5156721000";"Via dei Sabelli, 88";"34";"41.8970433000";"Roma";
"Privati federati";"Ass. Punto a capo";"12.6622670000";"Via Antonio Fratti, 17";"35";"41.7682005000";"Marino";
"Privati federati";"Ass. Senza Frontiere";"12.6608971000";"Corso Trieste, 54";"36";"41.7693512000";"Marino";
"Pubblici";"Assessorato Formazione Provincia di Roma";"12.4845718000";"Via delle Tre Cannelle";"37";"41.8964923000";"Roma";
"Privati federati";"Associazione Artipelago";"12.5001640000";"Via Roma 32";"38";"42.1271320000";"Castelnuovo di Porto";
"Privati federati";"Associazione Atmos - Artiterapeutiche";"12.4848000000";"via Giovanni Ansaldo 6";"39";"41.8638000000";"Roma";
"Privati federati";"Associazione Camminare Insieme";"12.5807310000";"Via Giggi Pizzirani, 25";"40";"41.8661670000";"Roma";
"Pubblici";"Associazione culturale Casale Garibaldi";"12.5561634000";"Via Romolo Balzani, 87";"41";"41.8822814000";"Roma";
"Privati federati";"Associazione culturale Casetta Rossa";"12.4883530000";"Via Magnaghi 14";"42";"41.8649010000";"Roma";
"Privati federati";"Associazione Emporio Naturale";"12.6141740000";"Via Ricciotti Garibaldi 24";"43";"42.0520770000";"Monterotondo";
"Privati federati";"Associazione Ippogrifo";"13.0184900000";"Via Cappuccini 7";"44";"41.6871370000";"Segni";
"Privati federati";"Associazione Le nove muse";"12.8925170000";"Piazza Regina Margherita";"45";"41.8389000000";"Palestrina";
"Privati federati";"Associazione Monte Pellecchia";"12.8952360000";"Piazza Della Veduta";"46";"42.0821990000";"Licenza";
"Privati federati";"Associazione nautica campo di Mare";"12.0384000000";"Lungomare dei Navigatori Etruschi 9";"47";"41.9723000000";"Cerveteri";
"Privati federati";"Associazione Per fare Insieme onlus";"12.5312260000";"Via Pelagosa 3";"48";"41.9373090000";"Roma";
"Privati federati";"Associazione sportiva La Ferratella";"12.4648000000";"Via Salvatore Quasimodo 124";"49";"41.8156000000";"Roma";
"Pubblici";"Associazione sportiva Piscine di Torrespaccata";"12.5802171000";"Via Bruno Pelizzi, 165";"50";"41.8589654000";"Roma";
"Privati federati";"Associazione Underground";"12.6213400000";"Via V. Reno 5";"51";"42.0498890000";"Monterotondo";
"Privati federati";"Aubergine Bar c/o Centro comm. Cassia";"12.3775750000";"Via Cassia 2040";"52";"42.0343300000";"Roma";
"Pubblici";"Auditorium della Conciliazione";"12.4637180442";"Via Della Conciliazione, 4";"53";"41.9026201675";"Roma";
"Pubblici";"Auditorium Parco della Musica";"12.4745730000";"Viale Pietro de Coubertin";"54";"41.9291420000";"Roma";
"Pubblici";"Auditorium Parco della Musica";"12.4731700000";"Viale Pietro de Coubertin";"55";"41.9294410000";"Roma";
"Pubblici";"Auditorium Parco della Musica";"12.4730980000";"Viale Pietro de Coubertin";"56";"41.9297410000";"Roma";
"Pubblici";"Auditorium Parco della Musica";"12.4749110000";"Viale Pietro de Coubertin";"57";"41.9291740000";"Roma";
"Pubblici";"Auditorium Parco della Musica - Anfiteatro";"12.4746270000";"Viale Pietro De Coubertin, 30";"58";"41.9293260000";"Roma";
"Pubblici";"Auditorium Parco della Musica - Biblioteca";"12.4742390000";"Viale Pietro De Coubertin, 30";"59";"41.9298180000";"Roma";
"Pubblici";"Auditorium Parco della Musica - Biglietteria";"12.4744180000";"Viale Pietro De Coubertin, 30";"60";"41.9293260000";"Roma";
"Pubblici";"Auditorium Parco della Musica - Guardaroba";"12.4742350000";"Viale Pietro De Coubertin, 30";"61";"41.9289260000";"Roma";
"Pubblici";"Auditorium Parco della Musica - Museo Archeologico";"12.4751690000";"Viale Pietro De Coubertin, 30";"62";"41.9289420000";"Roma";
"Pubblici";"Auditorium Parco della Musica - Sala Santa Cecilia";"12.4751900000";"Viale Pietro De Coubertin, 30";"63";"41.9291900000";"Roma";
"Pubblici";"Auditorium Parco della Musica - Sala Sinopoli";"12.4747400000";"Viale Pietro De Coubertin, 30";"64";"41.9287550000";"Roma";
"Pubblici";"Auditorium Parco della Musica - Sala Stampa";"12.4740310000";"Viale Pietro De Coubertin, 30";"65";"41.9291580000";"Roma";
"Pubblici";"Auditorium Pineta Sacchetti";"12.4258708066";"Via Albergotti, snc";"66";"41.9054272760";"Roma";
"Privati federati";"B&B Raggio di Sole";"12.2434000000";"Via IV Novembre, 116";"67";"42.1574000000";"Trevignano Romano";
"Privati federati";"B6B La Cerquetta";"12.6255890000";"Via Salvatoretto, 182";"68";"42.0035610000";"Fonte Nuova";
"Pubblici";"Banca del Tempo - Incis Pisana";"12.4101650884";"Via Baldassarre Longhena, 98";"69";"41.8697883215";"Roma";
"Privati federati";"Bar Casa Comune";"12.0845000000";"Lungomare marina di palo laziale";"70";"41.9426000000";"Ladispoli";
"Privati federati";"Bar Centrale";"12.5041680000";"Via Rianese 142";"71";"42.1003560000";"Riano";
"Pubblici";"Bar Claudio&Ewa";"12.4565000000";"via delle fornaci 13";"72";"41.8997000000";"Roma";
"Privati federati";"Bar della Piazza";"12.5005480000";"Piazza Vittorio Veneto";"73";"42.1256900000";"Castelnuovo di Porto";
"Privati federati";"Bar Fortini";"12.6569890000";"Corso Giacomo Matteotti, 16";"74";"41.7303180000";"Albano Laziale";
"Pubblici";"Bar Free Holidays";"12.5496207000";"Viale Irpinia, 27";"75";"41.8924760000";"Roma";
"Pubblici";"Bar Friends";"12.4748665000";"Via della Scrofa, 60";"76";"41.9005683000";"Roma";
"Privati federati";"Bar Gelateria Fiocco di Neve";"12.5382490000";"Via F. Pasinetti, 22/26";"77";"41.9620420000";"Roma";
"Privati federati";"Bar Genus";"12.5039800000";"Via San Martino Della Battaglia 14";"78";"41.9053150000";"Roma";
"Privati federati";"Bar Giolitti";"12.5293150000";"Largo orazi e curiazi, 23";"79";"41.8726760000";"Roma";
"Privati federati";"Bar Giolitti";"12.4668510000";"Piazza Martiri Di Belfiore";"80";"41.9149960000";"Roma";
"Privati federati";"Bar Il Tucano";"12.5220500000";"Via Dante Alighieri 44";"81";"42.0909370000";"Riano";
"Privati federati";"Bar Il Veliero";"12.5489610000";"Via Annia Regilla 133";"82";"41.8442390000";"Roma";
"Privati federati";"Bar Italia";"12.4513000000";"Via L. Ruspoli, 23";"83";"41.8576000000";"Roma";
"Privati federati";"Bar La caffettiera";"12.4792000000";"Piazza di Pietra, 65";"84";"41.8999000000";"Roma";
"Privati federati";"Bar La Licata";"12.4909050000";"Via Dei Serpenti, 165";"85";"41.8945770000";"Roma";
"Privati federati";"Bar La Terrazza";"12.9740936000";"Viale Giovanni XXIII";"86";"41.8876800000";"San Vito Romano";
"Privati federati";"Bar L'Appuntamento";"12.4844000000";"Via Flaminia, 1805";"87";"42.0347000000";"Roma";
"Pubblici";"Bar Les Affiches";"12.4723041000";"Via di Santa Maria dell'Anima, snc";"88";"41.8986155000";"Roma";
"Privati federati";"Bar Ludovisi";"12.4887000000";"Via Ludovisi 30";"89";"41.9070000000";"Roma";
"Pubblici";"Bar Meeting";"12.5821720000";"Via Enzo Benedetto, 36";"90";"41.8321390000";"Roma";
"Pubblici";"BAR Nemi - Stazione FS";"12.8280000000";"Piazzale della Stazione";"91";"41.8256000000";"Zagarolo";
"Privati federati";"Bar onda lunga";"12.0569610000";"Via Etruria Meridionale 13";"92";"41.9775970000";"Cerveteri";
"Privati federati";"Bar Pasticceria Caffè Fleming";"12.4736660000";"Via Flaminia Vecchia 677";"93";"41.9465850000";"Roma";
"Privati federati";"Bar Ricci";"12.7983840000";"Via Tiburto 42";"94";"41.9569870000";"Tivoli";
"Pubblici";"Bar Rosati";"12.4614289000";"via Sabotino, 37";"95";"41.9165563000";"Roma";
"Pubblici";"Bar Rosati";"12.4762176000";"Piazza del Popolo, 4";"96";"41.9101282000";"Roma";
"Privati federati";"Bar The Scorpion";"12.2599900000";"Via Reginaldo Belloni";"97";"42.0905470000";"Anguillara Sabazia";
"Privati federati";"Bar Treccì";"12.6209000000";"Via  De Rinaldis 30";"98";"41.8434000000";"Roma";
"Pubblici";"Bar Vanni";"12.4644898000";"Via Col di Lana, 10";"99";"41.9172780000";"Roma";
"Privati federati";"Bar Village";"12.5164000000";"Via Cesare de Lollis, 22";"100";"41.9010000000";"Roma";
"Pubblici";"Bibliopoint Nomentano";"12.5429000000";"via della bufalotta 229";"101";"41.9521000000";"Roma";
"Pubblici";"Biblioteca";"12.5191970000";"Piazza Caccia";"102";"42.2344830000";"Sant'Oreste";
"Pubblici";"Biblioteca Borghesiana";"12.6709042038";"Largo Monreale, snc";"103";"41.8608393873";"Roma";
"Pubblici";"Biblioteca casa del parco";"12.4243619000";"Via della Pineta Sacchetti, 78";"104";"41.9104037000";"Roma";
"Pubblici";"Biblioteca Casanatense";"12.4794300000";"Via Di Sant'Ignazio 52";"105";"41.8987820000";"Roma";
"Pubblici";"Biblioteca Comunale";"12.7580810000";"Via della Rocca";"106";"41.7879840000";"Rocca Priora";
"Pubblici";"Biblioteca Comunale";"12.6003600000";"Via 4 Novembre";"107";"41.8018830000";"Ciampino";
"Pubblici";"Biblioteca Comunale";"12.6621320000";"Viale Risorgimento, 5";"108";"41.7260420000";"Albano Laziale";
"Pubblici";"Biblioteca Comunale";"12.7565140000";"Via Colle S. Andrea";"109";"41.8266650000";"Colonna";
"Pubblici";"Biblioteca Comunale";"12.0737270000";"Via Caltagirone";"110";"41.9568650000";"Ladispoli";
"Pubblici";"Biblioteca Comunale";"12.5065090000";"Piazza Armando Diaz, 24";"111";"42.1441000000";"Morlupo";
"Pubblici";"Biblioteca comunale";"12.6690310000";"Viale Giovanni Dusmet 20";"112";"41.7955050000";"Grottaferrata";
"Pubblici";"Biblioteca Comunale";"12.9943930000";"Piazza Della Repubblica  4";"113";"42.0259550000";"Roviano";
"Pubblici";"Biblioteca Comunale";"13.0402530000";"Via Corte Vecchia, 27";"114";"41.6505000000";"Montelanico";
"Pubblici";"Biblioteca Comunale";"12.9127500000";"Piazza Padre Giovanni Genocchi";"115";"41.7411860000";"Artena";
"Pubblici";"Biblioteca Comunale";"12.8680860000";"Corso Cavour 17";"116";"41.9751060000";"Castel Madama";
"Pubblici";"Biblioteca Comunale";"12.7383770000";"Via Annibaldeschi Snc";"117";"41.8093690000";"Monte Compatri";
"Pubblici";"Biblioteca Comunale";"13.0225610000";"Via Della Pretura 1";"118";"41.6924810000";"Segni";
"Pubblici";"Biblioteca Comunale";"12.6307770000";"Via Villa Adele 2";"119";"41.4505720000";"Anzio";
"Pubblici";"Biblioteca Comunale";"12.6268940000";"Viale Antium 7";"120";"41.4621720000";"Anzio";
"Pubblici";"Biblioteca comunale";"12.0736000000";"via caltagirone";"121";"41.9567000000";"Ladispoli";
"Pubblici";"Biblioteca comunale";"12.9599000000";"Via Piagge";"122";"41.9065000000";"Pisoniano";
"Pubblici";"Biblioteca comunale";"13.0112000000";"Via Carpinetana sud 144";"123";"41.7232000000";"Colleferro";
"Pubblici";"Biblioteca comunale";"12.7078000000";"Viale Enrico Ferri 67";"124";"41.7592000000";"Rocca di Papa";
"Pubblici";"Biblioteca Comunale";"12.7794290000";"Piazza Cairoli 54";"125";"41.6889100000";"Velletri";
"Pubblici";"Biblioteca Comunale";"12.6374830000";"Via Crescenzio 11";"126";"42.0337670000";"Mentana";
"Pubblici";"Biblioteca Comunale";"12.9735830000";"Piazza San Nicola 1";"127";"41.8345990000";"Genazzano";
"Pubblici";"Biblioteca Comunale";"12.7735120000";"Piazza Sante Aureli";"128";"42.1166250000";"Moricone";
"Pubblici";"Biblioteca comunale";"12.8195000000";"piazza della rocca, 30";"129";"41.8715000000";"Gallicano nel Lazio";
"Pubblici";"Biblioteca Comunale";"12.6147000000";"Piazza Don Minzoni";"130";"42.0511000000";"Monterotondo";
"Pubblici";"Biblioteca Comunale Casa dei Bimbi";"12.5924780000";"Via Libero Leonardi, 153";"131";"41.8521310000";"Roma";
"Pubblici";"Biblioteca Comunale di Santa Marinella";"11.8655000000";"Via Aurelia 310";"132";"42.0354000000";"Santa Marinella";
"Pubblici";"Biblioteca Comunale Rugantino";"12.5786516407";"Via Rugantino, 113";"133";"41.8653541098";"Roma";
"Pubblici";"Biblioteca Cornelia";"12.3963854000";"Via Cornelia, 45";"134";"41.9083989000";"Roma";
"Pubblici";"Biblioteca di Archeologia e Storia dell'arte";"12.4821047000";"piazza venezia 3";"135";"41.8963711000";"Roma";
"Pubblici";"Biblioteca di Archeologia e Storia dell'arte - Sala Barbo";"12.4821047000";"piazza venezia 3";"136";"41.8963711000";"Roma";
"Pubblici";"Biblioteca Vallicelliana";"12.4694000000";"piazza della chiesa nuova 18";"137";"41.8982000000";"Roma";
"Pubblici";"Bioparco";"12.4869920000";"Viale del Giardino Zoologico";"138";"41.9167890000";"Roma";
"Pubblici";"Bocca della verità";"12.4826900000";"Via dei Cerchi";"139";"41.8880020000";"Roma";
"Pubblici";"Bocca della verità";"12.4827220000";"Via dei Cerchi";"140";"41.8879460000";"Roma";
"Pubblici";"Bocca della verità";"12.4826150000";"Via dei Cerchi";"141";"41.8878380000";"Roma";
"Pubblici";"Bocca della verità";"12.4825340000";"Via dei Cerchi";"142";"41.8878300000";"Roma";
"Pubblici";"Borgo Santa Maria";"12.6807990000";"Piazza Palmiro Togliatti";"143";"42.1537990000";"Montelibretti";
"Pubblici";"Bottega del caffè";"12.4909829000";"Piazza della Madonna dei Monti, 5";"144";"41.8949698000";"Roma";
"Privati federati";"Bravo Centro Servizi";"12.3932000000";"Via Gustavo Cacini 15";"145";"41.7869000000";"Roma";
"Privati federati";"British Council";"12.4825760000";"Via Di San Sebastianello, 16";"146";"41.9068370000";"Roma";
"Privati federati";"British Council";"12.4825760000";"Via Di San Sebastianello, 16";"147";"41.9068370000";"Roma";
"Pubblici";"C.S.A Mario Roma";"12.4402000000";"via calamandrei 95";"148";"41.8444000000";"Roma";
"Privati federati";"Caffè 2000";"12.4937428000";"Via San Michele 23";"149";"42.1447930000";"Morlupo";
"Privati federati";"Caffè quattro tempi";"12.5108640000";"Via Tiburtina Antica, 8";"150";"41.8974000000";"Roma";
"Privati federati";"Caffetteria Bruni";"12.4492770000";"Cinconvallazione Trionfale 4";"151";"41.9100450000";"Roma";
"Privati federati";"Cambridge Cafè";"12.4998000000";"Via Regina Margherita 69";"152";"41.9185000000";"Roma";
"Pubblici";"Campanile";"12.6724000000";"Corso Garibaldi 1";"153";"41.7212000000";"Ariccia";
"Privati federati";"Camping Int. Castelfusano";"12.4942000000";"Via Litoranea 132 Km";"154";"41.8905000000";"Roma";
"Pubblici";"Campo dei Fiori - Bar Vineria Reggio";"12.4717408000";"Piazza Campo dei Fiori, 15";"155";"41.8956510000";"Roma";
"Privati federati";"Caos cafè";"12.4512166000";"Via Andrea Doria 46/a";"156";"41.9097067000";"Roma";
"Pubblici";"Carabinieri";"12.7521930000";"Via dei Monti";"157";"41.8345170000";"Colonna";
"Pubblici";"Casa Circondariale Rebibbia";"12.5740671000";"Via Raffaele Majetti, 70";"158";"41.9305677000";"Roma";
"Pubblici";"Casa Circondariale Rebibbia";"12.5740671000";"Via Raffaele Majetti, 70";"159";"41.9305677000";"Roma";
"Pubblici";"Casa del Cinema";"12.4880110000";"Viale della pineta, 15";"160";"41.9107330000";"Roma";
"Pubblici";"Casa del Cinema";"12.4874210000";"Viale della pineta, 15";"161";"41.9106290000";"Roma";
"Pubblici";"Casa del Cinema";"12.4875710000";"Viale della pineta, 15";"162";"41.9112600000";"Roma";
"Pubblici";"Casa del Sociale";"12.4455455000";"via cassia 472";"163";"41.9640684000";"Roma";
"Pubblici";"Casa di Riposo Bruno Buozzi";"12.5852110000";"Via di Torrespaccata, 157";"164";"41.8589190000";"Roma";
"Pubblici";"Casa Famiglia";"12.4627198000";"Piazza Ungheria";"165";"41.6208209000";"Pomezia";
"Pubblici";"Casa Internazionale delle donne - Biblioteca";"12.4660480000";"Via della Lungara, 19";"166";"41.8944841000";"Roma";
"Pubblici";"Casa Internazionale delle donne - Giardino";"12.4654000000";"via della Lungara 19";"167";"41.8953000000";"Roma";
"Privati federati";"Casa Mangiacotti";"12.5329760000";"Via Gentile Da Mogliano 180";"168";"41.8889220000";"Roma";
"Pubblici";"Casali Tor Fiscale";"12.5434417000";"Via Dell'Acquedotto Felice, 120";"169";"41.8615402000";"Roma";
"Pubblici";"Casali Tor Fiscale";"12.5434417000";"Via Dell'Acquedotto Felice, 120";"170";"41.8615402000";"Roma";
"Privati federati";"Casetta Village";"12.3306000000";"Lungomare Amerigo Vespucci 68";"171";"41.7088000000";"Roma";
"Privati federati";"Casetta Village";"12.3196000000";"Lungomare Amerigo Vespucci 68";"172";"41.7133000000";"Roma";
"Privati federati";"Cassia";"12.4338000000";"Via Cassia 964";"173";"41.9716000000";"Roma";
"Pubblici";"Castel Chiodato";"12.6966570000";"Salaria 5";"174";"42.0575470000";"Mentana";
"Pubblici";"Castello";"12.5815080000";"Piazza San Giacomo";"175";"42.1962720000";"Civitella San Paolo";
"Pubblici";"Castello di Santa Severa";"11.9608630000";"Via Del Castello 2";"176";"42.0190700000";"Santa Marinella";
"Pubblici";"Cecchina - Villa del Vescovo";"12.6503661000";"Viale Italia 1";"177";"41.6971535000";"Albano Laziale";
"Pubblici";"Centro  Pianciani";"12.5084850000";"Via Luigi Pianciani 22";"178";"41.8927240000";"Roma";
"Pubblici";"Centro Anziani";"12.5036430000";"Via Tazio Nuvolari, 250";"179";"41.8367640000";"Roma";
"Pubblici";"Centro Anziani";"13.0087440000";"Piazza Mazzini 12";"180";"41.7332450000";"Colleferro";
"Pubblici";"Centro Anziani";"12.4210872000";"Via Innocenzo IV, 6";"181";"41.9104193000";"Roma";
"Pubblici";"Centro Anziani";"13.0875000000";"Via G.Matteotti";"182";"41.6035110000";"Carpineto Romano";
"Pubblici";"Centro anziani";"12.4994000000";"Via Ovidio,85";"183";"41.6712000000";"Pomezia";
"Pubblici";"Centro Anziani 1 maggio";"12.5615000000";"via delle messi d'oro 214";"184";"41.9160000000";"Roma";
"Pubblici";"Centro Anziani Borgo Pio";"12.4621925000";"Borgo Pio, 23";"185";"41.9036660000";"Roma";
"Pubblici";"Centro Anziani Campo Ascolano";"12.4598000000";"Via Po, 43";"186";"41.6852000000";"Pomezia";
"Pubblici";"Centro Anziani Capasso";"12.4253962030";"Via dei Capasso, snc";"187";"41.8830013349";"Roma";
"Pubblici";"Centro anziani Casale Ceribelli";"12.4864997000";"Viale Pico della Mirandola, 36";"188";"41.8467202000";"Roma";
"Pubblici";"Centro anziani Casale Ceribelli";"12.4853543968";"Viale Pico della Mirandola, 36";"189";"41.8466123045";"Roma";
"Pubblici";"Centro Anziani Cinecittà  Est";"12.5943970000";"Largo Salvatore Zappalà , 2";"190";"41.8518920000";"Roma";
"Pubblici";"Centro Anziani Fogaccia";"12.3937397000";"Piazza Cornelia, 86";"191";"41.9061692000";"Roma";
"Pubblici";"Centro Anziani La Romanina";"12.5992489000";"Via Giuseppe Gregoraci, 140";"192";"41.8468581000";"Roma";
"Pubblici";"Centro anziani La Torretta";"12.5570000000";"piazza dei consoli";"193";"41.8630000000";"Roma";
"Pubblici";"Centro Anziani Largo Spartaco";"12.5523610000";"Largo Spartaco, snc";"194";"41.8589780000";"Roma";
"Pubblici";"Centro Anziani Lo Scariolante";"12.3028000000";"Piazza Gregoriopoli, 2";"195";"41.7599690000";"Roma";
"Pubblici";"Centro Anziani Lo Scariolante";"12.3028000000";"Piazza Gregoriopoli, 2";"196";"41.7599690000";"Roma";
"Pubblici";"Centro Anziani Martin Pescatore";"12.4745670000";"Via Signa,9";"197";"41.6293590000";"Pomezia";
"Pubblici";"Centro Anziani Nino Manfredi";"12.5680601000";"Via Emilio Chiovenda, snc";"198";"41.8909157000";"Roma";
"Pubblici";"Centro Anziani Perlasca";"12.4594780000";"Via Sabotino, 7";"199";"41.9179670000";"Roma";
"Pubblici";"Centro anziani Piana Del Sole";"12.3036654000";"Viale di Pescina Gagliarda, snc";"200";"41.8246954000";"Roma";
"Privati federati";"Centro anziani Pullino";"12.4840000000";"Via G. Pullino 97";"201";"41.8641000000";"Roma";
"Pubblici";"Centro Anziani Quarticciolo";"12.5784972000";"Via Locorotondo, 31";"202";"41.8897003000";"Roma";
"Pubblici";"Centro Anziani Serpentara";"12.5168000000";"via pasquariello 26";"203";"41.9626000000";"Roma";
"Pubblici";"Centro Anziani Torvajanica";"12.4667000000";"via Gran Bretagna 42";"204";"41.6194000000";"Pomezia";
"Pubblici";"Centro Anziani Vitinia";"12.4049866000";"Via Gemmano (Vitinia), snc";"205";"41.7930370000";"Roma";
"Pubblici";"Centro anzianiPullino";"12.4844000000";"via pullino 97";"206";"41.8665000000";"Roma";
"Privati federati";"Centro Commerciale Arca";"12.5889460000";"Via Tiberina 73a";"207";"42.1176200000";"Capena";
"Privati federati";"Centro Commerciale Auchan";"12.5326840000";"Via Alberto Pollio 50/60";"208";"41.8990880000";"Roma";
"Privati federati";"Centro Commerciale Auchan";"12.5326840000";"Via Alberto Pollio 50/60";"209";"41.8990880000";"Roma";
"Privati federati";"Centro Commerciale Auchan";"12.5326840000";"Via Alberto Pollio 50/60";"210";"41.8990880000";"Roma";
"Privati federati";"Centro Commerciale Auchan";"12.5326840000";"Via Alberto Pollio 50/60";"211";"41.8990880000";"Roma";
"Pubblici";"Centro Commerciale Cinecittà II";"12.5709705000";"Viale Palmiro Togliatti, 2";"212";"41.8536774000";"Roma";
"Privati federati";"Centro Commerciale Euroma 2";"12.4600840000";"Viale Oceano Pacifico, 83";"213";"41.8208643000";"Roma";
"Privati federati";"Centro Commerciale Euroma 2";"12.4600840000";"Viale Oceano Pacifico, 83";"214";"41.8208643000";"Roma";
"Privati federati";"Centro Commerciale Euroma 2";"12.4600840000";"Viale Oceano Pacifico, 83";"215";"41.8208643000";"Roma";
"Privati federati";"Centro Commerciale Gulliver";"12.3992000000";"Via Della Lucchina 96";"216";"41.9581280000";"Roma";
"Privati federati";"Centro Commerciale Gulliver";"12.3992000000";"Via Della Lucchina 96";"217";"41.9581280000";"Roma";
"Privati federati";"Centro Commerciale Gulliver";"12.3992000000";"Via Della Lucchina 96";"218";"41.9581280000";"Roma";
"Pubblici";"Centro Commerciale I Granai - Brooks";"12.5040127000";"Via Mario Rigamonti, 100";"219";"41.8364380000";"Roma";
"Pubblici";"Centro Commerciale I Granai - Gadget City";"12.5040127000";"Via Mario Rigamonti, 100";"220";"41.8364380000";"Roma";
"Pubblici";"Centro Commerciale I Granai - Punto Informazione";"12.5040127000";"Via Mario Rigamonti, 100";"221";"41.8364380000";"Roma";
"Pubblici";"Centro Commerciale Le Torri";"12.6329000000";"via aspertini 390";"222";"41.8679000000";"Roma";
"Pubblici";"Centro Commerciale Naturale - Bar Halley";"12.4863256000";"Via Fonte Buono, 111";"223";"41.8480771000";"Roma";
"Pubblici";"Centro Commerciale Primavera";"12.5581364000";"Viale della Primavera, 194";"224";"41.8773104000";"Roma";
"Pubblici";"Centro Culturale Casale Caletto";"12.6047278000";"Via del Casale Caletto, snc";"225";"41.9203162000";"Roma";
"Privati federati";"Centro Culturale Lepetit";"12.5862000000";"via roberto lepetit, 86";"226";"41.8885000000";"Roma";
"Pubblici";"Centro di aggregazione M.P.R.";"12.5298790000";"Via Prenestina, 106";"227";"41.8915883000";"Roma";
"Pubblici";"Centro Formazione  Prof.le";"12.4554950000";"Via Cassia, 472";"228";"41.9572560000";"Roma";
"Pubblici";"Centro Islamico culturale D'Italia";"12.4961632000";"Viale della Moschea, 85";"229";"41.9354860000";"Roma";
"Pubblici";"Centro Islamico culturale d'Italia - Piazzale";"12.4961632000";"Viale della Moschea, 85";"230";"41.9354860000";"Roma";
"Pubblici";"Centro Nuove Tecnologie";"12.5694961000";"Piazza di Cinecittà , 11";"231";"41.8531133000";"Roma";
"Pubblici";"Centro Nuove Tecnologie";"12.5700170000";"Piazza di Cinecittà , 11";"232";"41.8532390000";"Roma";
"Pubblici";"Centro per l'Impiego";"12.6883030000";"Piazzale Aldo Moro";"233";"41.8177460000";"Frascati";
"Pubblici";"Centro per l'Impiego";"12.5275600000";"Via Pontina Vecchia, 13";"234";"41.6565520000";"Pomezia";
"Pubblici";"Centro per l'Impiego";"12.8143060000";"Via Empolitana, 237/236";"235";"41.9515550000";"Tivoli";
"Pubblici";"Centro per l'Impiego";"12.0502340000";"Largo di villa olio , 9";"236";"41.9827230000";"Cerveteri";
"Pubblici";"Centro per l'Impiego";"12.5792910000";"Via Rolando Vignali, 14";"237";"41.8560190000";"Roma";
"Pubblici";"Centro per l'Impiego";"12.6130420000";"Largo Venezia, 6";"238";"41.4639080000";"Anzio";
"Pubblici";"Centro per l'Impiego";"13.0105700000";"Via Carpinetana sud, 144";"239";"41.7222860000";"Colleferro";
"Pubblici";"Centro per l'Impiego";"12.8916290000";"Via degli Arcioni, 15";"240";"41.8378810000";"Palestrina";
"Pubblici";"Centro per l'Impiego";"11.8071720000";"Via Lepanto, 13";"241";"42.0909840000";"Civitavecchia";
"Pubblici";"Centro per l'Impiego";"12.7163110000";"Via Roma, 192";"242";"41.9867360000";"Guidonia Montecelio";
"Pubblici";"Centro per l'Impiego";"12.4046040000";"Via Decio Azzolino, 7";"243";"41.9155770000";"Roma";
"Pubblici";"Centro per l'Impiego";"12.6253970000";"Via Jacopo Torriti 7";"244";"41.8674280000";"Roma";
"Pubblici";"Centro per l'Impiego";"12.2258010000";"Via Del Canale 16";"245";"41.7725220000";"Fiumicino";
"Pubblici";"Centro per l'Impiego";"12.2553966000";"Via Domenico Baffigo 145";"246";"41.7390911000";"Roma";
"Pubblici";"Centro polifunzionale per i giovani";"13.4780080000";"Strada Comunale, snc ( Onna )";"247";"42.3295750000";"Roma";
"Pubblici";"Centro polifunzionale per i giovani";"13.4781060000";"Strada Comunale, snc ( Onna )";"248";"42.3279860000";"Roma";
"Pubblici";"Centro servizi per il Lavoro La Cacciarella";"12.5459155000";"Via di Casal Bruciato, 11";"249";"41.9080300000";"Roma";
"Pubblici";"Centro Sociale Anziani";"12.4437216000";"Via Carlo Avolio, snc";"250";"41.7885543000";"Roma";
"Pubblici";"Centro Sociale Anziani";"12.5861488000";"Via Alcide De Gasperi";"251";"42.1673480000";"Fiano Romano";
"Privati federati";"Centro sportivo Ippolife";"12.6399556000";"Via Cannetacci 50";"252";"42.0548498000";"Mentana";
"Privati federati";"Centro Sportivo Roma Flaminio";"12.4659690000";"Lungotevere Flaminio 55";"253";"41.9236670000";"Roma";
"Privati federati";"Centro sportivo Vigor Perconti";"12.5650340000";"Via Grotta Di Gregna 100";"254";"41.9081060000";"Roma";
"Pubblici";"Centro sportivo VisProma Work in Progres";"12.5550668000";"Via dell'Acqua Marcia, 51";"255";"41.9194332000";"Roma";
"Privati federati";"Centro Studi Pallai";"12.3929000000";"via Michelangelo 2";"256";"41.9268000000";"Roma";
"Privati federati";"Centrovini Arcioni";"12.4545810000";"Via Della Giuliana 11";"257";"41.9110380000";"Roma";
"Privati federati";"C'era una volta il caffè";"12.7236057000";"Via Tiburtina 242";"258";"41.9524070000";"Roma";
"Pubblici";"Chiosco del Bramante - caffetteria";"12.4713000000";"Arco della Pace 11";"259";"41.9002000000";"Roma";
"Pubblici";"Chiosco del Bramante - libreria";"12.4713000000";"Via Arco della Pace 5";"260";"41.9001000000";"Roma";
"Privati federati";"Choccolat";"12.6683100000";"Corso del popolo 42";"261";"41.7878100000";"Grottaferrata";
"Privati federati";"Cinema Adriano";"12.4698000000";"Piazza Cavour 22";"262";"41.9061000000";"Roma";
"Privati federati";"Cinema Adriano - foyer";"12.4694000000";"Piazza Cavour 22";"263";"41.9057000000";"Roma";
"Privati federati";"Cinema Adriano - lato via Cicerone";"12.4990000000";"Piazza Cavour 22";"264";"41.9001000000";"Roma";
"Privati federati";"Circolo Acli Ponte Mammolo";"12.5669000000";"via giovanni palombini 14";"265";"41.9284000000";"Roma";
"Privati federati";"Circolo Albatros";"12.2197786000";"Via della Rena, 116";"266";"42.1580981000";"Trevignano Romano";
"Privati federati";"Circolo Asd Tennis e Sport Ostia Antica";"12.3028720000";"Via Pericle Ducati 1";"267";"41.7610850000";"Roma";
"Privati federati";"Circolo Canottieri Aniene";"12.4869570000";"Lungo Tevere Acqua Acetosa, 119";"268";"41.9316940000";"Roma";
"Privati federati";"Circolo Canottieri Aniene";"12.4881100000";"Lungotevere Acqua Acetosa";"269";"41.9362820000";"Roma";
"Pubblici";"Circolo degli Artisti";"12.5262603000";"Via Casilina Vecchia, 442";"270";"41.8860400000";"Roma";
"Privati federati";"circolo ippico Acquasanta";"12.5478000000";"via vallericcia";"271";"41.8487000000";"Roma";
"Privati federati";"Circolo ippico Casale S. Nicola";"12.3579160000";"Via Del Casale Di San Nicola 232";"272";"41.9913450000";"Roma";
"Privati federati";"Circolo MAE";"12.4763774000";"Lungotevere dell'acqua acetosa 42";"273";"41.9354524000";"Roma";
"Privati federati";"Circolo MAE";"12.4763770000";"Lungotevere dell'acqua acetosa 42";"274";"41.9354520000";"Roma";
"Privati federati";"Circolo MAE";"12.4763770000";"Lungotevere dell'acqua acetosa 42";"275";"41.9354520000";"Roma";
"Privati federati";"Circolo MAE";"12.4765460000";"Lungotevere dell'acqua acetosa 42";"276";"41.9354270000";"Roma";
"Privati federati";"Circolo MAE";"12.4765460000";"Lungotevere dell'acqua acetosa 42";"277";"41.9354270000";"Roma";
"Pubblici";"Circolo ricreativo culturale Concetto Marchesi";"12.5614516000";"Via del Frantoio, 9";"278";"41.9132878000";"Roma";
"Pubblici";"Circolo sportivo \Villa flaminia\";"12.4689000000";"via donatello 20";"279";"41.9258000000";"Roma";
"Privati federati";"Circolo sportivo Acem";"12.4784000000";"Viale di Tor di Quinto, 64";"280";"41.9383000000";"Roma";
"Privati federati";"Circolo sportivo All round";"12.4484010000";"Viale Don Pasquino Borghi 96";"281";"41.8072630000";"Roma";
"Privati federati";"Circolo sportivo Aquaniene";"12.4932000000";"Via Della Moschea";"282";"41.9338670000";"Roma";
"Privati federati";"Circolo Sportivo Belle arti";"12.4725720000";"Via Flaminia 158";"283";"41.9196850000";"Roma";
"Privati federati";"Città dell'utopia";"12.4802000000";"via valeriano 7";"284";"41.8542000000";"Roma";
"Pubblici";"Club Le Rughe";"12.3750700000";"Viale Africa 10";"285";"42.0677260000";"Formello";
"Privati federati";"Club nautico l'Approdo";"12.5988585000";"via dei lillà 1";"286";"41.4874910000";"Anzio";
"Privati federati";"Club Residence I cieli di Roma";"12.3948000000";"Via Francesca Bertini, 8";"287";"41.7842000000";"Roma";
"Privati federati";"Club Residence I cieli di Roma";"12.3948000000";"Via Francesca Bertini, 8";"288";"41.7842000000";"Roma";
"Pubblici";"Collina della Pace - Asilo nido Collina Verde";"12.6855950877";"Via Capaci, 36";"289";"41.8641891695";"Roma";
"Pubblici";"Colonna Traiana";"12.4848000000";"via di Sant'Eufemia";"290";"41.8961000000";"Roma";
"Pubblici";"Comando Polizia Municipale";"12.6721983000";"Via San Giovanni Bosco, 2";"291";"41.7873309000";"Grottaferrata";
"Pubblici";"Comando Polizia Municipale";"13.0165050000";"Via Cesare Battisti 6";"292";"42.0418500000";"Arsoli";
"Pubblici";"Comando Polizia Municipale";"12.7063840000";"Piazza Della Repubblica";"293";"41.7622210000";"Rocca di Papa";
"Pubblici";"Comando Polizia Municipale";"12.9335910000";"Viale Pio Xii 105";"294";"41.8174660000";"Cave";
"Pubblici";"Comando Polizia Municipale";"12.9335910000";"Viale Pio Xii 105";"295";"41.8174660000";"Cave";
"Pubblici";"Comando Polizia Municipale";"12.5018960000";"Piazza Indipendenza 26";"296";"41.6696560000";"Pomezia";
"Pubblici";"Comando Polizia Municipale";"12.6107650000";"Via Delle Mura Francesi";"297";"41.7947270000";"Ciampino";
"Pubblici";"Comando Polizia Municipale";"12.4474230000";"Via Dello Stadio 8";"298";"42.1058170000";"Sacrofano";
"Pubblici";"Comitato di Quartiere La Rustica";"12.6087066000";"Via Dameta, 18";"299";"41.9150121000";"Roma";
"Privati federati";"Comitato di quartiere Ostia";"12.3240960000";"Via Federico Bazzini 21";"300";"41.7499700000";"Roma";
"Pubblici";"Comitato di Quartiere Villa Gordiani";"12.5529869595";"Via Pisino, 5";"301";"41.8970067344";"Roma";
"Privati federati";"Complesso Ospedaliero San Giovanni-Addolorata";"12.5028000000";"via dell'Amba Aradam";"302";"41.8865000000";"Roma";
"Pubblici";"Comune";"12.8680860000";"Corso Cavour 17";"303";"41.9751060000";"Castel Madama";
"Privati federati";"Comune di Cineto Romano - Municipio";"12.9637000000";"Via Carlo Todini, 8";"304";"42.0504000000";"Cineto Romano";
"Pubblici";"Conservatorio Santa Cecilia";"12.4785168000";"Via dei Greci, 18";"305";"41.9074465000";"Roma";
"Pubblici";"Conservatorio Santa Cecilia";"12.4785168000";"Via dei Greci, 18";"306";"41.9074465000";"Roma";
"Privati federati";"Consorzio Turistico Mare di Roma";"12.5310880000";"Viale San Lorenzo 58";"307";"41.5720320000";"Ardea";
"Privati federati";"Cooperativa Sociale  Integrata Antica Torre";"12.5265400000";"via dei Cercenii, 15";"308";"41.8498400000";"Roma";
"Pubblici";"Cooperativa Sociale \Progetto 96\";"12.4247817000";"Via degli Adimari, 29";"309";"41.8525994000";"Roma";
"Privati federati";"Cooperativa Sociale Integrata Conto Alla  Rovescia";"12.6245000000";"via Rubellia 4";"310";"41.9388000000";"Roma";
"Privati federati";"Coppedè cafè";"12.5027640000";"Via Tagliamento 30";"311";"41.9198800000";"Roma";
"Pubblici";"Corso Garibaldi";"12.6708210000";"Via Del Parco 2";"312";"41.7209490000";"Ariccia";
"Pubblici";"Corso Garibaldi";"12.6711320000";"Corso Garibaldi 53";"313";"41.7202850000";"Ariccia";
"Pubblici";"Corte D'Appello - Biblioteca";"12.4511190000";"Via Golametto, 12";"314";"41.9159360000";"Roma";
"Pubblici";"Corte D'Appello - Parcheggio";"12.4509310000";"Via Golametto, 12";"315";"41.9159470000";"Roma";
"Pubblici";"Corte D'Appello Piano Rialzato";"12.4507957177";"Via Romeo Romei, snc";"316";"41.9171167426";"Roma";
"Pubblici";"Corte D'Appello Piano Rialzato";"12.4509888368";"Via Romeo Romei, snc";"317";"41.9173881795";"Roma";
"Pubblici";"Corte D'Appello Piano Rialzato";"12.4506347852";"Via Romeo Romei, snc";"318";"41.9172245191";"Roma";
"Pubblici";"Cortile Palazzo Valentini";"12.4830320000";"Piazza Santi Apostoli";"319";"41.8976440000";"Roma";
"Privati federati";"Cose x Casa";"12.2028020000";"Viale Castellammare 106/a";"320";"41.8489480000";"Fiumicino";
"Pubblici";"Cretone";"12.7085230000";"Viale Manzoni";"321";"42.0734330000";"Palombara Sabina";
"Privati federati";"Cup";"12.4577000000";"Via Portuense 292";"322";"41.8646000000";"Roma";
"Privati federati";"Dal fornaio";"12.0663360000";"Largo Domiziano";"323";"41.9548470000";"Ladispoli";
"Pubblici";"Delegazione Cerenova";"12.0543190000";"Via Sergio Angelucci 1";"324";"41.9812990000";"Cerveteri";
"Pubblici";"Diaprtimento Bilancio Provincia  di Roma";"12.4846000000";"via delle tre cannelle 1";"325";"41.8965000000";"Roma";
"Privati federati";"Distretto industriale";"12.4026000000";"via degli olmetti";"326";"42.0518000000";"Formello";
"Privati federati";"DMT Store";"12.6583820000";"Piazza Luigi Sabatini";"327";"41.7313310000";"Albano Laziale";
"Pubblici";"Domus di Palazzo Valentini";"12.4840000000";"Via Quattro Novembre 119";"328";"41.8964000000";"Roma";
"Pubblici";"Ducati Caffè";"12.4764486000";"Largo di Torre Argentina, 1";"329";"41.8957918000";"Roma";
"Privati federati";"Due Emme Bar";"12.4474000000";"Via Monte Noce, 1";"330";"42.1056000000";"Sacrofano";
"Pubblici";"Easy Med 2003 srl";"12.5845560000";"Via Falconara Albanese, 22";"331";"41.8351580000";"Roma";
"Pubblici";"Emmeci Sport";"12.5758000000";"via Pellaro 1";"332";"41.8344000000";"Roma";
"Privati federati";"Empire";"12.3954220000";"Via Degli Aldobrandeschi 115";"333";"41.8774830000";"Roma";
"Privati federati";"Empire";"12.3954220000";"Via Aldobrandeschi 115";"334";"41.8774830000";"Roma";
"Privati federati";"Empire";"12.3954220000";"Via Degli Aldobrandeschi 115";"335";"41.8774830000";"Roma";
"Privati federati";"Enoteca della Provincia di Roma";"12.4840000000";"Via del Foro Traiano 82";"336";"41.8959000000";"Roma";
"Pubblici";"Ente Regionale Parco di Veio";"12.3800610000";"Via Felice Cavallotti, 18";"337";"42.1386200000";"Campagnano di Roma";
"Privati federati";"Equipe Food";"12.4813000000";"Piazza San Claudio, 165";"338";"41.9021000000";"Roma";
"Privati federati";"Euro Bar";"12.8075260000";"Largo Giuseppe Saragat 4";"339";"41.9537950000";"Tivoli";
"Pubblici";"F.I.G.C Associazione Italiana Arbitri";"12.4465000000";"via Gregorio VII 124";"340";"41.8957000000";"Roma";
"Privati federati";"F.lli Ceccarelli Mario e Sergio";"12.4808000000";"Via P. Matteucci 21";"341";"41.8723000000";"Roma";
"Privati federati";"Ferbel SRL";"12.4764540000";"Largo Di Torre Argentina 1";"342";"41.8957920000";"Roma";
"Pubblici";"Fioraio Marco e Daniela";"12.5651750000";"Piazza San Giovanni Bosco, 32";"343";"41.8596080000";"Roma";
"Pubblici";"Fontana di Trevi";"12.4836280000";"Via della Stamperia";"344";"41.9010790000";"Roma";
"Pubblici";"Foro Traiano";"12.4837029000";"via quattro novembre 119";"345";"41.8967767000";"Roma";
"Privati federati";"Francalancia resort";"12.4916860000";"Via Pian Braccone";"346";"42.1124880000";"Castelnuovo di Porto";
"Privati federati";"Gay Center";"12.4761250000";"Via Zabaglia";"347";"41.8771430000";"Roma";
"Privati federati";"Gay Center";"12.4761250000";"Via Zabaglia";"348";"41.8771430000";"Roma";
"Privati federati";"Gelateria Splash";"12.5277100000";"Via Eurialo, 104";"349";"41.8720880000";"Roma";
"Pubblici";"Giardini";"12.4809000000";"Piazza IV Novembre 1";"350";"42.2101000000";"Rignano Flaminio";
"Privati federati";"Giardini";"12.4701000000";"piazza cavour";"351";"41.9056000000";"Roma";
"Pubblici";"Giardini di Piazza Mazzini - Scuola G.Caetani";"12.4640030000";"Viale Giuseppe Mazzini, 36";"352";"41.9331080000";"Roma";
"Pubblici";"Giardini di Sant'Alessio";"12.4787414000";"Piazza Sant'Alessio, 23";"353";"41.8837245000";"Roma";
"Pubblici";"Giardini di via Montezebio - Bar Vanni";"12.4644898000";"Via Col di Lana, 10";"354";"41.9172780000";"Roma";
"Pubblici";"Giardini di Via Plava";"12.4594780000";"Via Sabotino, 7";"355";"41.9179670000";"Roma";
"Pubblici";"Giardino Alberto Oliva - Pizzeria Punto di Fuga";"12.4787314000";"Via Gabriello Chiabrera, 158";"356";"41.8522939000";"Roma";
"Pubblici";"Giardino Pubblico ex Ferrovie";"12.4819566000";"Via Pellegrino Matteucci, 51";"357";"41.8720413000";"Roma";
"Privati federati";"Gilda Club";"12.4811000000";"Via Mario de' Fiori 27";"358";"41.9058000000";"Roma";
"Privati federati";"Gioia Hairdressing";"12.4692750000";"Via Roma Libera 17";"359";"41.8866440000";"Roma";
"Privati federati";"Gran caffè Tirreno";"12.0563000000";"Via Sergio Angelucci";"360";"41.9805000000";"Cerveteri";
"Pubblici";"Guadagnolo - Ostello della gioventù";"12.8954000000";"Piazza Dante Alighieri";"361";"41.8458000000";"Capranica Prenestina";
"Privati federati";"Guardia di Finanza";"12.4556920000";"Via Pratica Di Mare 45";"362";"41.6779090000";"Pomezia";
"Privati federati";"Guardia di Finanza";"12.4556920000";"Via Pratica Di Mare 45";"363";"41.6779090000";"Pomezia";
"Privati federati";"Guardia di Finanza";"12.4556920000";"Via Pratica Di Mare 47";"364";"41.6779090000";"Pomezia";
"Privati federati";"H2S";"12.5255000000";"via assisi";"365";"41.8792000000";"Roma";
"Privati federati";"Hotel All Time";"12.4466720000";"Via Domenico Jachino 181";"366";"41.8093210000";"Roma";
"Privati federati";"Hotel Bernini Bristol";"12.4890295000";"Piazza Barberini. 23";"367";"41.9037775000";"Roma";
"Privati federati";"Hotel Capri";"12.5026100000";"Via Magenta 13";"368";"41.9033760000";"Roma";
"Privati federati";"Hotel Magenta";"12.5024650000";"Via Magenta 13";"369";"41.9033730000";"Roma";
"Privati federati";"Hotel Regio";"12.5000000000";"via Volturno 22";"370";"41.9042000000";"Roma";
"Privati federati";"Hotel Virginia";"12.4998000000";"Via Montebello, 94";"371";"41.9053000000";"Roma";
"Privati federati";"Hotel&Residence T-Village";"12.5968000000";"via delle Tamerici 49";"372";"41.4819000000";"Anzio";
"Pubblici";"IFO Istituti Fisioterapici Ospitalieri";"12.4475670000";"Via Elio Chianesi";"373";"41.8012100000";"Roma";
"Pubblici";"IFO Istituti Fisioterapici Ospitalieri";"12.4475450000";"Via Elio Chianesi,53";"374";"41.8009570000";"Roma";
"Pubblici";"IFO Istituti Fisioterapici Ospitalieri";"12.4475450000";"Via Elio Chianesi,53";"375";"41.8009570000";"Roma";
"Pubblici";"IFO Istituti Fisioterapici Ospitalieri";"12.4475450000";"Via Elio Chianesi,53";"376";"41.8009570000";"Roma";
"Pubblici";"IFO Istituti Fisioterapici Ospitalieri";"12.4475450000";"Via Elio Chianesi,53";"377";"41.8009570000";"Roma";
"Pubblici";"IFO Istituti Fisioterapici Ospitalieri";"12.4475450000";"Via Elio Chianesi,53";"378";"41.8009570000";"Roma";
"Pubblici";"IFO Istituti Fisioterapici Ospitalieri";"12.4475450000";"Via Elio Chianesi,53";"379";"41.8009570000";"Roma";
"Pubblici";"Ignazio Silone";"12.4804150000";"Via Ignazio Silone, 100";"380";"41.8155940000";"Roma";
"Pubblici";"Ignazio Silone";"12.4799380000";"Via Ignazio Silone, 100";"381";"41.8156060000";"Roma";
"Privati federati";"il Baretto";"12.4660200000";"Via Garibaldi 27C";"382";"41.8897760000";"Roma";
"Privati federati";"Il Barrocciaio";"12.5109000000";"Via dei Salentini,12";"383";"41.8984000000";"Roma";
"Privati federati";"Il Cigno";"12.4909580000";"Viale Parioli 16";"384";"41.9237180000";"Roma";
"Pubblici";"Il Gelato";"12.4768789000";"Piazza di Monte D'Oro, 91";"385";"41.9045978000";"Roma";
"Pubblici";"Impianti Sportivi Artiglio";"12.5264158000";"Via di Villa Narducci, 31";"386";"41.9104646000";"Roma";
"Privati federati";"Impianti Sportivi d'Ateneo ?S. Staiano?";"12.6051818000";"Via della Ricerca Scientifica s.n.c.";"387";"41.8535568000";"Roma";
"Privati federati";"Infomac";"12.4575480000";"Via Carlo Mirabello 9";"388";"41.9164450000";"Roma";
"Pubblici";"Informagiovani";"12.6696500000";"Via Del Parco 10";"389";"41.7201110000";"Ariccia";
"Privati federati";"Isola Del Cinema";"12.4787000000";"Piazza San Bartolomeo";"390";"41.8903000000";"Roma";
"Privati federati";"Isola Del Cinema";"12.4782000000";"Piazza San Bartolomeo";"391";"41.8901000000";"Roma";
"Pubblici";"Istituto cine - tv Rossellini";"12.4694860000";"Via Della Vasca Navale 58";"392";"41.8577660000";"Roma";
"Pubblici";"Istituto Comprensivo";"12.8225120000";"Via 3 Novembre, 11";"393";"41.8700710000";"Gallicano nel Lazio";
"Pubblici";"Istituto Comprensivo Borgoncini Duca";"12.4495587933";"Via San Silverio, snc";"394";"41.8939366154";"Roma";
"Pubblici";"Istituto Comprensivo Borgoncini Duca";"12.4494944202";"Via San Silverio, snc";"395";"41.8940227827";"Roma";
"Pubblici";"Istituto Comprensivo Viale Adriatico";"12.5372000000";"Viale Adriatico 140";"396";"41.9428000000";"Roma";
"Pubblici";"Istituto Comprensivo Viale Adriatico";"12.5372000000";"Viale Adriatico 140";"397";"41.9428000000";"Roma";
"Pubblici";"Istituto Comprensivo Villaggio Comprensivo";"12.6813547000";"Via Fosso Dell'Osa, 505";"398";"41.9089780000";"Roma";
"Privati federati";"Istituto Europeo Design";"12.5246300000";"Via Alcamo 11";"399";"41.8861150000";"Roma";
"Privati federati";"Istituto Europeo Design";"12.5246300000";"Via Alcamo 11";"400";"41.8861150000";"Roma";
"Privati federati";"Istituto Europeo Design";"12.4741970000";"Via Branca 118";"401";"41.8798600000";"Roma";
"Privati federati";"Istituto Europeo Design";"12.4741970000";"Via Branca 118";"402";"41.8798600000";"Roma";
"Privati federati";"ITC Ruiz";"12.4733000000";"Viale Africa, 109";"403";"41.8251000000";"Roma";
"Privati federati";"Jolly Lido";"12.5800966000";"Lungomare Celeste, 3";"404";"41.5043011000";"Anzio";
"Privati federati";"KeNako";"12.5186000000";"via dei piceni, 22";"405";"41.8979000000";"Roma";
"Privati federati";"La fabbrica del caffè";"12.5703120000";"Viale Sacco E Vanzetti 167";"406";"41.9102510000";"Roma";
"Privati federati";"La fonte del gelato";"12.6005000000";"Piazza della Pace 6";"407";"41.8005000000";"Ciampino";
"Pubblici";"La Rosta";"12.5062000000";"via taddeide";"408";"42.1005000000";"Riano";
"Privati federati";"La Sapienza House B&B";"12.5040630000";"Viale Regina Margherita 192";"409";"41.9147050000";"Roma";
"Privati federati";"Laboratorio Nautico";"12.4845990000";"via Giovannipoli 20";"410";"41.8609080000";"Roma";
"Pubblici";"Laghetto";"12.7365380000";"Via Delle Marmorelle";"411";"41.8467350000";"Monte Compatri";
"Pubblici";"Largo Arenula";"12.4761270000";"Largo Arenula";"412";"41.8945080000";"Roma";
"Pubblici";"largo IV novembre";"12.1316143000";"Largo IV Novembre";"413";"42.1530888000";"Canale Monterano";
"Pubblici";"Laura In";"12.4749946000";"Piazza Santa Maria Liberatrice, 7";"414";"41.8797415000";"Roma";
"Privati federati";"Lava Blue Group";"12.6067170000";"Via Salaria 201";"415";"42.0798200000";"Monterotondo";
"Pubblici";"Lavanderia Ondablu";"12.5199000000";"via giuseppe de mattheis 3";"416";"41.9096000000";"Roma";
"Pubblici";"Lavinio - Punto Informazioni Turistiche";"12.5866430000";"Piazza Lavinia, 7";"417";"41.4985696000";"Anzio";
"Pubblici";"Laziodisu Roma3";"12.4687690000";"Via della Vasca Navale, 79";"418";"41.8558232000";"Roma";
"Pubblici";"Laziodisu Roma3";"12.4687690000";"Via della Vasca Navale, 79";"419";"41.8558232000";"Roma";
"Privati federati";"Liberi di";"12.4750000000";"Piazza Santa Maria Liberatrice, 46";"420";"41.8805000000";"Roma";
"Privati federati";"Libreria Arion";"12.4713000000";"Via Giovanni Pierluigi da Palestrina, 1";"421";"41.9053000000";"Roma";
"Pubblici";"Libreria Kiryat Sefer";"12.4774688000";"Via del Tempio, 2";"422";"41.8924762000";"Roma";
"Privati federati";"Libreria Settembrini libri&cucina";"12.4670000000";"piazza dei martiri di belfiore 12";"423";"41.9151000000";"Roma";
"Privati federati";"Licenza Municipio";"12.9017000000";"Via Don Minzoni, 12";"424";"42.0743000000";"Licenza";
"Pubblici";"Liceo Classico Giulio Cesare - Aula Informatica";"12.5068738000";"Corso Trieste, 48";"425";"41.9188353000";"Roma";
"Pubblici";"Liceo Classico Giulio Cesare - Aula Magna";"12.5068738000";"Corso Trieste, 48";"426";"41.9188353000";"Roma";
"Pubblici";"Liceo Scientifico Amaldi";"12.6324306000";"Via Domenico Parasacchi, 21";"427";"41.8669246000";"Roma";
"Pubblici";"Liceo Scientifico Amaldi";"12.6324306000";"Via Domenico Parasacchi, 21";"428";"41.8669246000";"Roma";
"Privati federati";"Locanda Atlantide";"12.5159180000";"Via Dei Lucani 22";"429";"41.8944850000";"Roma";
"Pubblici";"Lungomare Toscanelli - Ostia";"12.2717840000";"Lungomare Paolo Toscanelli";"430";"41.7310380000";"Roma";
"Pubblici";"Lungotevere Sanzio";"12.4743300000";"Piazza Giuseppe Gioacchino Belli";"431";"41.8900510000";"Roma";
"Privati federati";"Marinari Caffè";"12.5166830000";"Via Libia 10";"432";"41.9294490000";"Roma";
"Pubblici";"Mattatoio";"12.5252000000";"via del campo sportivo";"433";"42.0915000000";"Riano";
"Pubblici";"Mausoleo Alessandro Severo";"12.5493530000";"Via A.Pedanio, 13";"434";"41.8657920000";"Roma";
"Pubblici";"Mausoleo Alessandro Severo";"12.5493530000";"Via A.Pedanio, 13";"435";"41.8657920000";"Roma";
"Pubblici";"Maxxi";"12.4678800000";"Via Guido Reni 4";"436";"41.9284030000";"Roma";
"Privati federati";"Maxxi - Sale interne";"12.4666000000";"Via Guido Reni";"437";"41.9283000000";"Roma";
"Pubblici";"Maxxi BASE";"12.4678800000";"Via Guido Reni, 6";"438";"41.9284035000";"Roma";
"Pubblici";"Mercatino delle valli";"12.5218700000";"Via Conca D'Oro, 113";"439";"41.9420451000";"Roma";
"Pubblici";"Mercato Comunale Santa Silvia";"12.4502079000";"Largo Santa Silvia, snc";"440";"41.8563336000";"Roma";
"Pubblici";"Mercato di Via Vigna Murata";"12.5076690000";"Via Andrea Meldola";"441";"41.8238070000";"Roma";
"Pubblici";"Mercato di Via Vigna Murata";"12.5072160000";"Via Andrea Meldola";"442";"41.8239010000";"Roma";
"Pubblici";"Mercato Laurentino - Banco Agenzia Servizi";"12.4848324946";"Via Francesco Sapori, snc";"443";"41.8101933888";"Roma";
"Privati federati";"Mercato Osteria";"12.4727280000";"Piazza Campo De Fiori 53";"444";"41.8954430000";"Roma";
"Privati federati";"Miss Pizza";"12.4722000000";"Via Giuseppe Gioacchino Belli 19";"445";"41.9077000000";"Roma";
"Privati federati";"Miss Pizza";"12.5662540000";"Via Degli Aceri, 72";"446";"41.8781400000";"Roma";
"Privati federati";"Mithos Taverna Così Com'è";"12.5186000000";"Via Scipione Ammirato 7";"447";"41.8743000000";"Roma";
"Pubblici";"Montecelio";"12.7223340000";"Viale Montecelio";"448";"41.9994770000";"Guidonia Montecelio";
"Pubblici";"Municipio";"12.9726290000";"Piazza Santa Maria, 4";"449";"41.8333170000";"Genazzano";
"Pubblici";"Municipio";"13.0324370000";"Piazza Umberto I";"450";"41.9818160000";"Cervara di Roma";
"Pubblici";"Municipio";"12.8223000000";"Via 3 Novembre";"451";"41.8700600000";"Gallicano nel Lazio";
"Pubblici";"Municipio";"12.8019320000";"Piazza dell'autonomia 1";"452";"41.8216310000";"San Cesareo";
"Pubblici";"Municipio";"12.5717500000";"Piazza Vittorio Emanuele";"453";"42.2567190000";"Ponzano Romano";
"Pubblici";"Municipio";"12.5065090000";"Piazza Armando Diaz";"454";"42.1441000000";"Morlupo";
"Pubblici";"Municipio";"12.7130690000";"Piazza Santa Liberata, 2";"455";"42.0340250000";"Sant'Angelo Romano";
"Pubblici";"Municipio";"12.7510390000";"Piazza Vittorio Emanuele II, 5";"456";"41.8342220000";"Colonna";
"Pubblici";"Municipio";"12.1757700000";"Piazza 4 Novembre";"457";"42.1032180000";"Bracciano";
"Pubblici";"Municipio";"12.6202500000";"Piazza Padre Pio";"458";"41.9953860000";"Fonte Nuova";
"Pubblici";"Municipio";"12.6641200000";"Via G. Matteotti, 37";"459";"41.4576180000";"Nettuno";
"Pubblici";"Municipio";"12.6641200000";"Via G. Matteotti 37";"460";"41.4576180000";"Nettuno";
"Pubblici";"Municipio";"12.6177620000";"Largo 16 Marzo 1978, 9";"461";"42.2368820000";"Torrita Tiberina";
"Pubblici";"Municipio";"12.6196350000";"Piazza Roma";"462";"42.0521340000";"Monterotondo";
"Pubblici";"Municipio";"12.9994441000";"Via Costanza Garibaldi, 6";"463";"42.0613568000";"Riofreddo";
"Pubblici";"Municipio";"12.6504790000";"Piazza della Libertà 7";"464";"41.7467500000";"Castel Gandolfo";
"Pubblici";"Municipio";"11.9377980000";"Piazza Vittorio Veneto, 12";"465";"42.1495680000";"Tolfa";
"Pubblici";"Municipio";"13.0164733529";"Piazza MArtiri Antifascisti 1";"466";"42.0414188620";"Arsoli";
"Pubblici";"Municipio";"12.4008830000";"Piazza San Lorenzo";"467";"42.0800510000";"Formello";
"Pubblici";"Municipio";"12.9017680000";"Via Don Minzoni 12";"468";"42.0743740000";"Licenza";
"Pubblici";"Municipio";"12.6914230000";"Piazza Don Fabrizi";"469";"41.7071730000";"Genzano di Roma";
"Pubblici";"Municipio";"12.6985510000";"Piazza Carlo Fontana";"470";"41.6753140000";"Lanuvio";
"Pubblici";"Municipio";"12.5913890000";"Piazzale Cairoli";"471";"42.1716440000";"Fiano Romano";
"Pubblici";"Municipio";"12.9522990000";"Piazza Roma 3";"472";"42.0040820000";"Saracinesco";
"Pubblici";"Municipio";"13.0066550000";"Via Mastro Lavinio 5";"473";"42.1003270000";"Vivaro Romano";
"Pubblici";"Municipio";"13.0332280000";"Piazza San Nicola 9";"474";"41.9808410000";"Agosta";
"Pubblici";"Municipio";"12.9923200000";"Via Delle Province";"475";"41.9336300000";"Gerano";
"Pubblici";"Municipio";"13.0392580000";"Piazza Vittorio Emanule II";"476";"41.6497180000";"Montelanico";
"Pubblici";"Municipio";"13.1080420000";"Piazza Roma 6";"477";"42.0191080000";"Camerata Nuova";
"Pubblici";"Municipio";"13.1107820000";"Piazza Mazzini ,5";"478";"41.6559030000";"Gorga";
"Pubblici";"Municipio";"12.9523400000";"Piazza Aristide Frezza ,7";"479";"41.8620840000";"Capranica Prenestina";
"Pubblici";"Municipio";"12.9953540000";"Via San Rocco";"480";"42.0862500000";"Vallinfreda";
"Pubblici";"Municipio";"13.0056210000";"Piazza Italia 1";"481";"41.7303410000";"Colleferro";
"Pubblici";"Municipio";"12.6584430000";"Piazza Fagiolo";"482";"41.7291170000";"Albano Laziale";
"Pubblici";"Municipio";"12.6585590000";"Piazza Costituente";"483";"41.7292200000";"Albano Laziale";
"Pubblici";"Municipio";"12.8307790000";"Piazza Vittorio Emanuele";"484";"42.1086860000";"Monteflavio";
"Pubblici";"Municipio";"12.9451370000";"Piazza San Nicola";"485";"41.8460820000";"Rocca di Cave";
"Pubblici";"Municipio";"13.0380980000";"Via Della Fontana";"486";"41.9415150000";"Canterano";
"Pubblici";"Municipio";"12.8681680000";"Corso Cavour 34";"487";"41.9754820000";"Castel Madama";
"Pubblici";"Municipio";"12.8680860000";"Corso Cavour 17";"488";"41.9751060000";"Castel Madama";
"Pubblici";"Municipio";"12.8944660000";"Via Vittorio Veneto";"489";"41.8462620000";"Castel San Pietro Romano";
"Pubblici";"Municipio";"12.5403148000";"Piazza San Luca, 1";"490";"42.1397443000";"Capena";
"Pubblici";"Municipio";"12.5403148000";"Piazza San Luca, 1";"491";"42.1397443000";"Capena";
"Pubblici";"Municipio";"13.2308371000";"Piazza Italia,1";"492";"41.9268425000";"Vallepietra";
"Pubblici";"Municipio";"13.0322000000";"Via del Municipio";"493";"41.8606000000";"Olevano Romano";
"Pubblici";"Municipio";"13.0286000000";"Piazza del Municipio";"494";"41.8821000000";"Bellegra";
"Pubblici";"Municipio";"13.0645000000";"Via della Chiesa 7";"495";"41.8741000000";"Roiate";
"Pubblici";"Municipio";"13.1168000000";"Via San Giorgio 1";"496";"41.8784000000";"Arcinazzo Romano";
"Pubblici";"Municipio";"12.7784000000";"Corso della Repubblica, 239";"497";"41.6858000000";"Velletri";
"Privati federati";"Municipio";"12.9174000000";"Via Nazionale 5";"498";"41.7769000000";"Valmontone";
"Pubblici";"Municipio";"12.7654000000";"Piazza Vittorio Veneto";"499";"42.0670000000";"Palombara Sabina";
"Pubblici";"Municipio";"12.7735000000";"Piazza Sante Aureli";"500";"42.1170000000";"Moricone";
"Pubblici";"Municipio";"12.7263000000";"Piazza Matteotti";"501";"41.9997000000";"Guidonia Montecelio";
"Pubblici";"Municipio";"12.1303000000";"Largo Gioacchino Fara";"502";"42.1305000000";"Manziana";
"Pubblici";"Municipio";"12.8332000000";"Piazza Santa Eurosia 1";"503";"41.7279000000";"Lariano";
"Pubblici";"Municipio";"13.1684000000";"Via IV Novembre 10";"504";"41.8884000000";"Jenne";
"Pubblici";"Municipio";"13.0973000000";"via Luigi Naddeo 1";"505";"41.8840000000";"Affile";
"Pubblici";"Municipio";"12.5015140000";"Piazza Indipendenza 21";"506";"41.6695360000";"Pomezia";
"Pubblici";"Municipio";"13.0859150000";"Piazza Regina Margherita";"507";"41.6057000000";"Carpineto Romano";
"Pubblici";"Municipio";"12.5956630000";"4 Novembre";"508";"42.2299640000";"Nazzano";
"Pubblici";"Municipio";"12.5972630000";"Mazzini 4";"509";"42.2286330000";"Nazzano";
"Pubblici";"Municipio";"12.6672564000";"Via Garibaldi";"510";"41.7888130000";"Grottaferrata";
"Pubblici";"Municipio";"12.1035380000";"Piazza Del Campo";"511";"42.1366650000";"Canale Monterano";
"Pubblici";"Municipio";"12.8933630000";"Piazza Conti 4";"512";"41.8873090000";"Poli";
"Pubblici";"Municipio";"12.7388560000";"Piazza Della Repubblca";"513";"42.1351120000";"Montelibretti";
"Pubblici";"Municipio";"12.9371620000";"Via Alberto Theodoli, 1";"514";"41.9860180000";"Sambuci";
"Pubblici";"Municipio";"13.0172010000";"Via Giuseppe Mazzini, 29";"515";"41.9935670000";"Marano Equo";
"Pubblici";"Municipio";"12.9812858000";"Via Santa Maria de Mattias";"516";"41.8826727000";"San Vito Romano";
"Pubblici";"Municipio";"12.9829678000";"Piazza Augusto Baccelli";"517";"41.8827024000";"San Vito Romano";
"Pubblici";"Municipio";"12.7370560000";"Piazza Del Mercato1";"518";"41.8079650000";"Monte Compatri";
"Pubblici";"Municipio";"12.9523400000";"Piazza Aristide Frezza 7";"519";"41.8620840000";"Capranica Prenestina";
"Pubblici";"Municipio";"12.9093880000";"Piazza Giuseppe Garibaldi";"520";"42.0947570000";"Percile";
"Pubblici";"Municipio";"11.9014630000";"Piazza Della Repubblica 39";"521";"42.1567250000";"Allumiere";
"Pubblici";"Municipio";"12.6804000000";"piazza Marconi";"522";"41.8061000000";"Frascati";
"Pubblici";"Municipio";"12.6799000000";"piazza Marconi";"523";"41.8065000000";"Frascati";
"Pubblici";"Municipio";"12.4810000000";"Piazza IV Novembre 1";"524";"42.2099000000";"Rignano Flaminio";
"Pubblici";"Municipio";"13.0246000000";"Via Papa Pellegrino Ernetti 9";"525";"41.9108000000";"Rocca Santo Stefano";
"Pubblici";"Municipio";"13.0963000000";"Piazza Sant' Andrea";"526";"41.9242000000";"Subiaco";
"Pubblici";"Municipio";"12.6589000000";"Piazza S. Barnaba";"527";"41.7701000000";"Marino";
"Pubblici";"Municipio";"12.8072000000";"Piazza Cesare Battisti";"528";"42.0230000000";"Marcellina";
"Pubblici";"Municipio";"12.8062000000";"via 4 Novembre";"529";"42.1376000000";"Montorio Romano";
"Pubblici";"Municipio";"13.0208000000";"Via Del Municipio, 31";"530";"41.9571000000";"Rocca Canterano";
"Pubblici";"Municipio";"12.8934000000";"piazza conti, 4";"531";"41.8873000000";"Poli";
"Pubblici";"Municipio - Giardini pubblici";"11.9377980000";"Piazza Vittorio Veneto, 12";"532";"42.1495680000";"Tolfa";
"Pubblici";"Museo";"12.6621320000";"Viale Risorgimento";"533";"41.7260420000";"Albano Laziale";
"Pubblici";"Museo";"12.0995000000";"Piazza Santa Maria";"534";"41.9989000000";"Cerveteri";
"Pubblici";"Museo";"13.0236000000";"Via Lauri 1";"535";"41.6929000000";"Segni";
"Pubblici";"Museo Civico Archeologico";"12.9127500000";"Piazza Padre Giovanni Genocchi";"536";"41.7411860000";"Artena";
"Pubblici";"Museo di arte Civica e Contemporanea";"12.9838564000";"Piazza Santa Vittoria, 1";"537";"42.0127453000";"Anticoli Corrado";
"Privati federati";"Negozio Urban Network Tecnologies";"12.5191880000";"Viale Somalia 219";"538";"41.9345010000";"Roma";
"Privati federati";"Nereo Protezione Civile";"12.5386000000";"Via Fenicotteri 6";"539";"41.5642000000";"Ardea";
"Privati federati";"Novottica Lacchei";"12.6593220000";"Piazza Gramsci";"540";"41.7274330000";"Albano Laziale";
"Privati federati";"Nuova Polisportiva De Rossi";"12.5249000000";"Via di Vigna Fabbri";"541";"41.8706000000";"Roma";
"Privati federati";"Ocean surf";"12.0461000000";"Viale Adriatico 4";"542";"41.9739000000";"Cerveteri";
"Privati federati";"Ocean surf beach";"12.0384339000";"Lungomare dei Navigatori Etruschi, 7";"543";"41.9722553000";"Cerveteri";
"Pubblici";"Officina Innovazione";"12.6715710000";"Via Degli Orti Di Villa Sciarra 9";"544";"41.8071810000";"Frascati";
"Privati federati";"Ospedale nuovo Cardiologia";"12.4577000000";"Via Portuense 292";"545";"41.8646000000";"Roma";
"Privati federati";"Ospedale nuovo Radiologia";"12.4577000000";"Via Portuense 292";"546";"41.8646000000";"Roma";
"Pubblici";"Ospedale S. Giovanni - CUP";"12.4972890000";"Via San Giovanni In Laterano";"547";"41.8891710000";"Roma";
"Pubblici";"Ospedale S. Giovanni - CUP";"12.4972890000";"Via San Giovanni In Laterano";"548";"41.8891710000";"Roma";
"Pubblici";"Ospedale S. Giovanni - Piazzale blocco C";"12.5030490000";"Via Dell'amba Aradam.";"549";"41.8857190000";"Roma";
"Pubblici";"Ospedale S. Giovanni - Sala Prelievi";"12.4972890000";"Via San Giovanni In Laterano";"550";"41.8891710000";"Roma";
"Pubblici";"Ospedale Santo Spirito";"12.4627000000";"lungotevere in sassia 1";"551";"41.8998000000";"Roma";
"Pubblici";"Ospedale Santo Spirito";"12.4627000000";"lungotevere in sassia 1";"552";"41.8998000000";"Roma";
"Pubblici";"Ospedale Santo Spirito";"12.4627000000";"lungotevere in sassia 1";"553";"41.8998000000";"Roma";
"Pubblici";"Ospedale Santo Spirito - Ginecologia";"12.4626912000";"Lungotevere in Sassia, 1";"554";"41.8998013000";"Roma";
"Privati federati";"Osteria di San Cesario";"12.7991770000";"Via F. Corridoni";"555";"41.8215640000";"San Cesareo";
"Pubblici";"Palazzetto dello Sport";"12.6373340000";"Via Cupa Dei Marmi";"556";"41.4572210000";"Nettuno";
"Pubblici";"Palazzo Baronale";"13.0523650000";"Piazza Dei Caduti ,2";"557";"41.6983370000";"Gavignano";
"Pubblici";"Palazzo Baronale";"12.8848860000";"Via Regina Margherita 6";"558";"41.9067980000";"Casape";
"Pubblici";"Palazzo Chigi";"12.6723400000";"Piazza Della Repubblica";"559";"41.7212360000";"Ariccia";
"Pubblici";"Palazzo Fandango -  Atelier";"12.4763981000";"Via dei Prefetti, 22";"560";"41.9023902000";"Roma";
"Pubblici";"Palazzo Fandango -  Caffetteria";"12.4768280000";"Via Dei Prefetti";"561";"41.9024790000";"Roma";
"Pubblici";"Palazzo Fandango -  Libreria";"12.4764170000";"Via dei Prefetti, 22";"562";"41.9023970000";"Roma";
"Pubblici";"Palazzo Fandango - Giardino";"12.4768280000";"Via Dei Prefetti";"563";"41.9024790000";"Roma";
"Pubblici";"Palazzo Garrone";"12.5001710000";"Via Bel Poggio";"564";"42.1280530000";"Castelnuovo di Porto";
"Pubblici";"Palazzo Valentini";"12.4853737000";"via IV novembre 119/a";"565";"41.8965800000";"Roma";
"Pubblici";"Palazzo Valentini - Sala Consiglio";"12.4854169000";"Via Quattro Novembre 149";"566";"41.8968935000";"Roma";
"Pubblici";"Palazzo Valentini - Sala della Pace";"12.4852120000";"Via IV Novembre 119";"567";"41.8969720000";"Roma";
"Pubblici";"Palazzo Valentini - Sala Di Liegro";"12.4838000000";"Via IV Novembre 119";"568";"41.8966000000";"Roma";
"Pubblici";"Pantheon - Abbigliamento Cenci";"12.4772184000";"Piazza della Rotonda, 77";"569";"41.8990348000";"Roma";
"Pubblici";"Pantheon - Negozio Giorgi&Febbi";"12.4772387000";"Piazza della Rotonda, 61";"570";"41.8989223000";"Roma";
"Pubblici";"Parco Alessandrino";"12.5784106000";"Via del Campo, 48";"571";"41.8771686000";"Roma";
"Pubblici";"Parco Appia - Bar Egeria";"12.5302948000";"Via dell'Almone, 105";"572";"41.8549119000";"Roma";
"Pubblici";"Parco Appia - Casale ex mulino";"12.5157149000";"Via Della Caffarella, 23";"573";"41.8645220000";"Roma";
"Pubblici";"Parco Appia Antica - Ex Cartiera";"12.5027421000";"Via Appia Antica, 42";"574";"41.8676434000";"Roma";
"Pubblici";"Parco Appia Antica - Ex Cartiera";"12.5027421000";"Via Appia Antica, 42";"575";"41.8676434000";"Roma";
"Pubblici";"Parco Appia Antica - Ex Cartiera";"12.5027421000";"Via Appia Antica, 42";"576";"41.8676434000";"Roma";
"Pubblici";"Parco Appia Antica - Villa Capo di Bove";"12.5249213000";"Via Appia Antica, 222";"577";"41.8482446000";"Roma";
"Pubblici";"Parco Appia Antica - Villa Capo di Bove";"12.5249213000";"Via Appia Antica, 222";"578";"41.8482446000";"Roma";
"Pubblici";"Parco Arcobaleno - Biblioteca Sandro Onofri";"12.3464288000";"Via Umberto Lilloni, 39";"579";"41.7755415000";"Roma";
"Pubblici";"Parco Ascalesi";"12.4149526000";"Via Ludovico Jacobini, 7";"580";"41.9201065000";"Roma";
"Pubblici";"Parco Atleti azzurri d'Italia - Scuola Media Petrassi";"12.4599146000";"via della Maratona, 35";"581";"41.9441842000";"Roma";
"Pubblici";"Parco Caduti dal Mare - Padiglione Polifunzionale Hagape";"12.4843843000";"Via Giacinto Pullino, 71";"582";"41.8661098000";"Roma";
"Pubblici";"Parco Caffarella - Scuola Ada Negri";"12.5218110000";"Via Latina, 303";"583";"41.8696670000";"Roma";
"Pubblici";"Parco Caffarella - Scuola Ada Negri";"12.5218110000";"Via Latina, 303";"584";"41.8696670000";"Roma";
"Pubblici";"Parco Castelli Romani";"12.7057420000";"Via Cesare Battisti 5";"585";"41.7625850000";"Rocca di Papa";
"Pubblici";"Parco Clemente Riva - Comitato di quartiere Ostia Nord";"12.2807980000";"Via delle Baleniere, 240";"586";"41.7405432000";"Roma";
"Pubblici";"Parco degli Acquedotti - Lievito Madre";"12.5592250000";"Via Lemonia, 214";"587";"41.8518720000";"Roma";
"Pubblici";"Parco degli Acquedotti - Lievito Madre";"12.5601393000";"Via Lemonia, 214";"588";"41.8512841000";"Roma";
"Pubblici";"Parco del Forte Ardeatino - Ist. Comprensivo Carlo Alberto Dalla Chiesa";"12.5075478000";"Via di Grotta Perfetta, 524";"589";"41.8380526000";"Roma";
"Pubblici";"Parco dell'Isola Farnese";"12.3941750000";"Via Cassia, 1694";"590";"42.0189530000";"Roma";
"Pubblici";"Parco dell'UNRRA CASAS";"12.5856521000";"Via San Benedetto del Tronto, 4";"591";"41.9427004000";"Roma";
"Pubblici";"Parco di Colli D'oro";"12.4787500000";"Via Valbondione, snc";"592";"41.9949920000";"Roma";
"Pubblici";"Parco di Colli D'oro";"12.4787500000";"Via Valbondione, snc";"593";"41.9949920000";"Roma";
"Pubblici";"Parco di via Pietro Rosa";"12.2840890000";"Via Pietro Rosa, 2";"594";"41.7293420000";"Roma";
"Pubblici";"Parco Ex Combattenti Monte Mario";"12.4209886000";"Via Vincenzo Chiarugi, 4";"595";"41.9415757000";"Roma";
"Pubblici";"Parco Franceschetti - Giardino dei Demar";"12.5869447000";"Via Davide Campari, 263";"596";"41.8863030000";"Roma";
"Pubblici";"Parco G.Soria";"12.4111961000";"Via Giambattista Soria, 71";"597";"41.9064492000";"Roma";
"Pubblici";"Parco Marta Russo - Centro Anziani";"12.4856860000";"Viale Gemona del Friuli, snc";"598";"41.9959830000";"Roma";
"Pubblici";"Parco Marta Russo - Centro Anziani";"12.4724537000";"Viale Gemona del Friuli, snc";"599";"42.0360712000";"Roma";
"Pubblici";"Parco P.Togliatti - Polisportiva Bettini";"12.5709008000";"Via Quinto Publicio, 39";"600";"41.8561443000";"Roma";
"Pubblici";"Parco S.Onofrio";"12.4356001000";"Via Luigi Morandi, snc";"601";"41.9352710000";"Roma";
"Pubblici";"Parco Serafini - Sister's Bar";"12.4844500000";"Via Giovannipoli, 30";"602";"41.8608964000";"Roma";
"Pubblici";"Parco Talenti - Centro Anziani Talenti";"12.5515060000";"Via Renato Fucini, 265bis";"603";"41.9471170000";"Roma";
"Pubblici";"Parco Tor Sapienza";"12.5888035000";"Viale Filippo De Pisis, 3";"604";"41.8994621000";"Roma";
"Pubblici";"Parco Torresina  - Parrocchia S.Faustina";"12.4000260000";"Viale Indro Montanelli, 9";"605";"41.9309786000";"Roma";
"Pubblici";"Parco Torresina - Associazione Vivere al Quartaccio";"12.4006659000";"Via del Podere Trieste, 61";"606";"41.9251443000";"Roma";
"Pubblici";"Parco Vigne Nuove - Scuola Matteucci";"12.5364345000";"Via delle Vigne Nuove, 262";"607";"41.9519923000";"Roma";
"Pubblici";"Parco Vigne Nuove - Scuola Matteucci";"12.5364345000";"Via delle Vigne Nuove, 262";"608";"41.9519923000";"Roma";
"Pubblici";"Parco Villa De Sanctis - Centro sportivo Villa de Sanctis";"12.5525765000";"Via dei Gordiani, 5";"609";"41.8788477000";"Roma";
"Pubblici";"Parco Villa Gordiani";"12.5546221000";"Via Prenestina, 351";"610";"41.8943367000";"Roma";
"Pubblici";"Parco Villa Gordiani";"12.5546221000";"Via Prenestina, 351";"611";"41.8943367000";"Roma";
"Pubblici";"Parco Virgiliano - Chiosco Caffè Giardino";"12.5154628000";"Parco Virgiliano (Via Nemorense), 5";"612";"41.9312755000";"Roma";
"Pubblici";"Parrocchia di N.S. Czestochowa";"12.6099673000";"Largo Corelli, 9";"613";"41.9137763000";"Roma";
"Pubblici";"Parrucchiere E-Bi";"12.4847483000";"Via Fontanellato, 64";"614";"41.8472930000";"Roma";
"Privati federati";"Pasticceria Dagnino";"12.4953000000";"Via V. Emanuele Orlando, 75";"615";"41.9034000000";"Roma";
"Pubblici";"Pastificio Cerere";"12.5161145000";"via Tiburtina, 196";"616";"41.8993104000";"Roma";
"Pubblici";"Pavona - Parco giochi";"12.6156517000";"via roma 41";"617";"41.7251708000";"Albano Laziale";
"Pubblici";"Piazza Ampere - Centro Anziani Marconi";"12.4633874000";"Via Giovanni Caselli, snc";"618";"41.8693345000";"Roma";
"Pubblici";"Piazza Anco Marzio - British School";"12.2797926000";"Via delle Baleniere, 151";"619";"41.7388618000";"Roma";
"Pubblici";"Piazza Anco Marzio - British School";"12.2797926000";"Via delle Baleniere, 151";"620";"41.7388618000";"Roma";
"Pubblici";"Piazza Anco Marzio - British School";"12.2797926000";"Via delle Baleniere, 151";"621";"41.7388618000";"Roma";
"Pubblici";"Piazza Anco Marzio - Punto Informazioni Turistiche - Ostia";"12.2781150000";"Piazza Anco Marzio";"622";"41.7293150000";"Roma";
"Pubblici";"Piazza Bainsizza - ASL17";"12.4609894000";"Via Monte Santo, 71";"623";"41.9190987000";"Roma";
"Pubblici";"Piazza Belli";"12.4743150000";"Piazza Giuseppe Gioacchino Belli";"624";"41.8900120000";"Roma";
"Pubblici";"Piazza Borghese";"12.7156610000";"Piazza Borghese";"625";"41.8167770000";"Monte Porzio Catone";
"Pubblici";"Piazza delle rose - Santa Lucia";"12.6596000000";"Piazza delle Rose";"626";"41.9883000000";"Fonte Nuova";
"Pubblici";"Piazza di Nostra Signora di Guadalupe - Chiosco Petit Chalet";"12.4239947000";"Piazza di Nostra Signora di Guadalupe, 12";"627";"41.9435794000";"Roma";
"Pubblici";"Piazza di Spagna";"12.4825070000";"Piazza di Spagna";"628";"41.9057410000";"Roma";
"Pubblici";"Piazza Fabrizio De Andrè - Consulta Municipale dell'handicap";"12.4595713000";"Viale Vicopisano, 95";"629";"41.8455029000";"Roma";
"Pubblici";"Piazza Fiume - Bar Friends";"12.4982475000";"Via Piave, 61";"630";"41.9102161000";"Roma";
"Pubblici";"Piazza Fontana";"12.6985500000";"Piazza Carlo Fontana";"631";"41.6753100000";"Lanuvio";
"Pubblici";"Piazza Gugliemo Marconi";"12.9582020000";"Piazza Guglielmo Marconi";"632";"41.9048200000";"Cerreto Laziale";
"Pubblici";"Piazza Indipendenza";"12.8311000000";"piazza indipendenza";"633";"41.8384000000";"Zagarolo";
"Pubblici";"Piazza Manfredo Fanti";"12.5027620000";"Piazza Manfredo Fanti, 47";"634";"41.8977260000";"Roma";
"Pubblici";"Piazza Matteotti";"12.6624000000";"Piazza Matteotti";"635";"41.7686000000";"Marino";
"Pubblici";"Piazza S. Pietro";"12.6583230000";"Piazza San Pietro";"636";"41.7290230000";"Albano Laziale";
"Privati federati";"Piazza San Giacomo";"12.5815000000";"Piazza San Giacomo";"637";"42.1963000000";"Civitella San Paolo";
"Pubblici";"Piazza Santa Maria della Pietà - Sede Municipio XIX";"12.4195926000";"Piazza Santa Maria della Pietà , 5";"638";"41.9409224000";"Roma";
"Pubblici";"Piazza Santa Maria della Pietà - Sede Municipio XIX";"12.4195926000";"Piazza Santa Maria della Pietà , 5";"639";"41.9409224000";"Roma";
"Pubblici";"Piazza sant'Anna";"12.9405045000";"piazza Sant'Anna 1";"640";"41.9612099000";"Ciciliano";
"Pubblici";"Piazza Sonnino";"12.4739804864";"Piazza Sidney Sonnino, 39";"641";"41.8886406653";"Roma";
"Pubblici";"Piazza SS. Apostoli";"12.4830320000";"Piazza Santi Apostoli";"642";"41.8976440000";"Roma";
"Pubblici";"Piazza Trilussa - Bar Friends";"12.4698870000";"Piazza Trilussa, 34";"643";"41.8915855000";"Roma";
"Pubblici";"Piazzale di Ponte Milvio";"12.4663360000";"Piazzale di Ponte Milvio, snc";"644";"41.9369440000";"Roma";
"Pubblici";"Piazzale di Ponte Milvio";"12.4661580000";"Piazzale di Ponte Milvio, snc";"645";"41.9373500000";"Roma";
"Pubblici";"Pigneto - Centro Anziani Isidoro Carace";"12.5381012000";"Via Isidoro di Carace, 18";"646";"41.8843825000";"Roma";
"Pubblici";"Pincietto";"13.0505340000";"Via Roma 30";"647";"41.6996700000";"Gavignano";
"Privati federati";"Pizzeria da Gigetto";"12.4889000000";"Via Alessandria 43";"648";"41.9086000000";"Roma";
"Privati federati";"Pizzeria Piazza Roma";"12.4903550000";"Via Marino Ghetaldi 36";"649";"41.8177000000";"Roma";
"Pubblici";"Poliambulatorio";"12.4577000000";"Via Portuense 292";"650";"41.8646000000";"Roma";
"Pubblici";"Policlinico Umberto I";"12.5087560000";"Viale del Policlinico, 155";"651";"41.9081580000";"Roma";
"Pubblici";"Policlinico Umberto I";"12.5109330000";"Viale del Policlinico, 155";"652";"41.9067670000";"Roma";
"Pubblici";"Policlinico Umberto I";"12.5108350000";"Viale del Policlinico, 155";"653";"41.9069440000";"Roma";
"Pubblici";"Policlinico Umberto I";"12.5115370000";"Viale del Policlinico, 155";"654";"41.9065470000";"Roma";
"Pubblici";"Policlinico Umberto I";"12.5128260000";"Viale del Policlinico, 155";"655";"41.9068410000";"Roma";
"Pubblici";"Policlinico Umberto I";"12.5128220000";"Viale del Policlinico, 155";"656";"41.9068200000";"Roma";
"Pubblici";"Policlinico Umberto I";"12.5112070000";"Viale del Policlinico, 155";"657";"41.9074330000";"Roma";
"Pubblici";"Policlinico Umberto I";"12.5143340000";"Viale del Policlinico, 155";"658";"41.9060420000";"Roma";
"Pubblici";"Policlinico Umberto I";"12.5120540000";"Viale del Policlinico, 155";"659";"41.9056670000";"Roma";
"Pubblici";"Policlinico Umberto I";"12.5134970000";"Viale del Policlinico, 155";"660";"41.9061160000";"Roma";
"Pubblici";"Policlinico Umberto I";"12.5107350000";"Viale del Policlinico, 155";"661";"41.9049660000";"Roma";
"Pubblici";"Policlinico Umberto I";"12.5101510000";"Viale del Policlinico, 155";"662";"41.9073430000";"Roma";
"Pubblici";"Policlinico Umberto I";"12.5117540000";"Viale del Policlinico, 155";"663";"41.9049440000";"Roma";
"Pubblici";"Policlinico Umberto I";"12.5132940000";"Viale del Policlinico, 155";"664";"41.9063250000";"Roma";
"Pubblici";"Policlinico Umberto I";"12.5114200000";"Viale del Policlinico, 155";"665";"41.9082350000";"Roma";
"Privati federati";"Polisportiva Comunale";"12.5501220000";"Via Montona,13";"666";"41.8971820000";"Roma";
"Privati federati";"Polisportiva Comunale";"12.5501220000";"Via Montona 13";"667";"41.8971820000";"Roma";
"Privati federati";"Polisportiva Time Out";"12.3730639000";"via Cassia";"668";"42.0612981000";"Formello";
"Pubblici";"Polizia Municipale";"13.0978000000";"Via Monteduomo 1";"669";"41.8846000000";"Affile";
"Pubblici";"Ponte Milvio";"12.4663390000";"Piazzale di Ponte Milvio, snc";"670";"41.9369360000";"Roma";
"Pubblici";"Pontica";"13.0241000000";"Piazza Pontica";"671";"41.9113000000";"Rocca Santo Stefano";
"Pubblici";"Pontile di Ostia - Stabilimento balneare Elmi";"12.2734447000";"Lungomare Paolo Toscanelli, 121";"672";"41.7305817000";"Roma";
"Pubblici";"Pontile di Ostia - Stabilimento balneare Elmi";"12.2734447000";"Lungomare Paolo Toscanelli, 121";"673";"41.7305817000";"Roma";
"Pubblici";"Porta Futuro";"12.4736870000";"Piazza Orazio Giustiniani";"674";"41.8761300000";"Roma";
"Pubblici";"Porta Futuro";"12.4736870000";"Piazza Orazio Giustiniani";"675";"41.8761300000";"Roma";
"Pubblici";"Porta Futuro";"12.4736870000";"Piazza Orazio Giustiniani";"676";"41.8761300000";"Roma";
"Pubblici";"Porta Futuro - Mercato";"12.4736870000";"Piazza Orazio Giustiniani";"677";"41.8761300000";"Roma";
"Pubblici";"Portico D'Ottavia - Liceo Renzo Levi";"12.4770310325";"Via Portico D'Ottavia, 73";"678";"41.8930200302";"Roma";
"Pubblici";"Presidenza Provincia di Roma";"12.4836352000";"Via 4 Novembre, 119";"679";"41.8967800000";"Roma";
"Pubblici";"Protezione Civile";"12.9733730000";"Via Donato Bramante";"680";"41.8269010000";"Genazzano";
"Pubblici";"Protezione Civile";"12.9825140000";"Piazza Capitolo, snc";"681";"41.9442740000";"Cerreto Laziale";
"Privati federati";"Provinciattiva";"12.4686000000";"Via Angelo Bargoni, 40";"682";"41.8801000000";"Roma";
"Privati federati";"Provinciattiva S.p.A.";"12.4689000000";"Via Angelo Bargoni, 70";"683";"41.8806000000";"Roma";
"Privati federati";"Pub Il Clown";"12.3251000000";"Via Litoranea 22";"684";"41.7122000000";"Roma";
"Pubblici";"Pub Jonathan Angel's";"12.4706158000";"Via della Fossa, 14";"685";"41.8991990000";"Roma";
"Privati federati";"Pulsar";"12.5757640000";"Via Pellaro 1";"686";"41.8344480000";"Roma";
"Pubblici";"Punto Informazioni";"12.7667320000";"Viale Rieti, 1";"687";"42.0693300000";"Palombara Sabina";
"Pubblici";"Punto Informazioni Turistiche";"12.2455300000";"Piazza Vittorio Emanuele III";"688";"42.1557590000";"Trevignano Romano";
"Pubblici";"Punto Informazioni Turistiche";"12.1003190000";"Piazza Aldo Moro, 1";"689";"41.9987260000";"Cerveteri";
"Pubblici";"Punto Informazioni Turistiche";"12.2599900000";"Viale Reginaldo Belloni";"690";"42.0905470000";"Anguillara Sabazia";
"Pubblici";"Punto Informazioni Turistiche";"12.6838120000";"Piazza Tommaso Frasconi";"691";"41.7071380000";"Genzano di Roma";
"Pubblici";"Punto Informazioni Turistiche";"13.0218120000";"Piazza Cesare Battisti";"692";"41.6915560000";"Segni";
"Pubblici";"Punto Informazioni Turistiche";"12.7158350000";"Piazza Roma";"693";"41.7189310000";"Nemi";
"Pubblici";"Punto Informazioni Turistiche";"12.0788000000";"Piazza Rossellini";"694";"41.9487000000";"Ladispoli";
"Privati federati";"Quattro C Srl - Pangi Cafe'";"12.4950150000";"Via Aureliana, 44";"695";"41.9071600000";"Roma";
"Pubblici";"Rainbow Magic Land";"12.9589000000";"via della pace";"696";"41.7649000000";"Valmontone";
"Pubblici";"Rainbow Magic Land";"12.9605000000";"via della pace";"697";"41.7643000000";"Valmontone";
"Pubblici";"Rainbow Magic Land";"12.9595000000";"via della pace";"698";"41.7641000000";"Valmontone";
"Pubblici";"Rainbow Magic Land";"12.9615000000";"via della pace";"699";"41.7648000000";"Valmontone";
"Privati federati";"Renault Retail Group Italia";"12.5961000000";"Via Tiburtina 1155";"700";"41.9325000000";"Roma";
"Privati federati";"Retecamere";"12.4684000000";"Via Valadier 42";"701";"41.9079000000";"Roma";
"Privati federati";"Retecamere";"12.4685000000";"Via Valadier 42";"702";"41.9079000000";"Roma";
"Privati federati";"Ristorante  Bartolomeo";"12.4981040000";"Via Salaria, 215";"703";"41.9192160000";"Roma";
"Privati federati";"Ristorante Assaggiami";"12.4558810000";"Via Santa Giovanna Elisabetta, 13";"704";"41.9586070000";"Roma";
"Privati federati";"Ristorante Bar Cavallino Rosso";"12.8009000000";"Piazza Massimo 8";"705";"41.9658000000";"Tivoli";
"Privati federati";"Ristorante Bel Poggio";"12.5181320000";"Via Del Monte Di Casa, 36";"706";"41.9904430000";"Roma";
"Privati federati";"Ristorante Bel Poggio";"12.5181320000";"Via Del Monte Di Casa, 36";"707";"41.9904430000";"Roma";
"Privati federati";"Ristorante Convoglia";"12.5033810000";"Via Giolitti, 36";"708";"41.8986780000";"Roma";
"Privati federati";"Ristorante da Gabriele";"12.3744000000";"via boccea, 591";"709";"41.9221000000";"Roma";
"Privati federati";"Ristorante El Pueblo";"12.4393380000";"Via G. De Vecchi Pieralice 34/36";"710";"41.9007200000";"Roma";
"Privati federati";"Ristorante Evandro";"12.3601000000";"Via Egna, 3";"711";"41.7342000000";"Roma";
"Privati federati";"Ristorante Evandro";"12.3602000000";"Via Egna, 3";"712";"41.7340000000";"Roma";
"Privati federati";"Ristorante Graziella";"12.0798110000";"Via Milazzo 10";"713";"41.9530790000";"Ladispoli";
"Privati federati";"Ristorante Il Marchese del grillo";"12.3586670000";"Via Domenico Purificato, 171";"714";"41.7707240000";"Roma";
"Privati federati";"Ristorante Il Ragno d'Oro";"12.4760230000";"Lungo Mare Meduse, 78 Torvaianica, RM";"715";"41.6084680000";"Pomezia";
"Privati federati";"Ristorante La Casina Bianca";"12.2284000000";"Via della Rena, 78";"716";"42.1589000000";"Trevignano Romano";
"Pubblici";"Ristorante L'Antica Quercia";"12.4718925000";"Piazza della Quercia, 23";"717";"41.8944720000";"Roma";
"Privati federati";"Ristorante Le Palme";"12.5776503000";"Lungomare Celeste, 37";"718";"41.5073001000";"Anzio";
"Privati federati";"Ristorante L'insalata ricca";"12.4740520000";"Largo Dei Chiavari, 85";"719";"41.8963800000";"Roma";
"Privati federati";"Ristorante Pane&Vino";"12.3752480000";"Via Anton Giulio Bragaglia 21/c";"720";"42.0220310000";"Roma";
"Privati federati";"Ristorante Villa Celeste";"13.0000740000";"via Valeria";"721";"42.0604200000";"Riofreddo";
"Privati federati";"Ristorante Zi Gaetana";"12.4609590000";"Via Cola Di Rienzo 263";"722";"41.9069420000";"Roma";
"Pubblici";"Rotonda di ostia - Stabilimento Balneare Sporting Beach";"12.3191398000";"Lungomare Amerigo Vespucci, 8";"723";"41.7134937000";"Roma";
"Pubblici";"Rotonda di ostia - Stabilimento Balneare Sporting Beach";"12.3191398000";"Lungomare Amerigo Vespucci, 8";"724";"41.7134937000";"Roma";
"Privati federati";"Royal Cafè";"12.6902910000";"Via Italo Belardi 38";"725";"41.7070530000";"Genzano di Roma";
"Privati federati";"S.S Lazio Baseball";"12.4843000000";"via della villa di lucina 12";"726";"41.8548000000";"Roma";
"Pubblici";"Sala da The Babington";"12.4822525000";"Piazza di Spagna, 23";"727";"41.9059850000";"Roma";
"Pubblici";"Sala Operativa Provincia di Roma";"12.4853610000";"Via IV novembre 149";"728";"41.8969430000";"Roma";
"Pubblici";"Sala riunioni - 1° piano";"12.5073890000";"Via Nomentana 54";"729";"41.9132930000";"Roma";
"Pubblici";"San Marco Evangelista";"12.4836284000";"Piazza Dei Giuliani e Dalmati, 20";"730";"41.8210661000";"Roma";
"Pubblici";"Santa Maria Della Pieta'  - Museo Della Mente";"12.4197081000";"Piazza Santa Maria Della Pietà , 7";"731";"41.9407838000";"Roma";
"Privati federati";"Santuario Divino Amore";"12.5422110000";"Via Del Santuario";"732";"41.7775180000";"Roma";
"Privati federati";"Santuario Divino Amore - Auditorium";"12.5422110000";"Via Del Santuario";"733";"41.7775180000";"Roma";
"Privati federati";"Santuario Divino Amore - Hotel";"12.5422110000";"Via Del Santuario";"734";"41.7775180000";"Roma";
"Privati federati";"Santuario Divino Amore - Laghetto";"12.5422110000";"Via Del Santuario";"735";"41.7775180000";"Roma";
"Privati federati";"Santuario Divino Amore - Oggetti Religiosi";"12.5422110000";"Via Del Santuario";"736";"41.7775180000";"Roma";
"Privati federati";"Santuario Divino Amore - Sala Grotte";"12.5422110000";"Del Santuario";"737";"41.7775180000";"Roma";
"Pubblici";"Scuola  Bernardino Mastroianni";"12.3554972761";"Via Ponzone, 23";"738";"41.9167598746";"Roma";
"Pubblici";"Scuola  Fabio Montagna";"12.6032335837";"Via Turano, snc";"739";"41.9103952220";"Roma";
"Pubblici";"Scuola Angelucci";"13.0942000000";"Via Carlo Alberto Dalla Chiesa";"740";"41.9229000000";"Subiaco";
"Privati federati";"Scuola Arte e Spettacolo";"12.4365380000";"Largo Lido Duranti, 1";"741";"41.7778780000";"Roma";
"Pubblici";"Scuola Bellingeri";"12.4198712000";"Via Andrea Verga, 2";"742";"41.9371540000";"Roma";
"Pubblici";"Scuola Bellingeri";"12.4198712000";"Via Andrea Verga, 2";"743";"41.9371540000";"Roma";
"Pubblici";"Scuola Bernardino Mastroianni";"12.3552934282";"Via Ponzone, 23";"744";"41.9175861615";"Roma";
"Pubblici";"Scuola d'Arte Cinematografica \Gian Maria Volonté\";"12.4596000000";"Via greve, 15";"745";"41.8444000000";"Roma";
"Pubblici";"Scuola di Musica Musicalmente";"12.5501235000";"Via Tiburtina, 695";"746";"41.9110960000";"Roma";
"Pubblici";"Scuola F.Martelli";"12.6705490000";"Via Giuseppe Medail, 31";"747";"41.9239567000";"Roma";
"Pubblici";"Scuola Fabio Montagna";"12.6031236131";"Via Turano, snc";"748";"41.9103952220";"Roma";
"Pubblici";"Scuola Fumaroli";"12.0731070000";"Via Castellamare Di  Stabia";"749";"41.9545190000";"Ladispoli";
"Pubblici";"Scuola Gianni Rodari";"12.5306150000";"Via Norcia, 19";"750";"41.8770220000";"Roma";
"Pubblici";"Scuola Giuseppe Mazzini";"12.4913785939";"Via delle Carine, 2";"751";"41.8918457086";"Roma";
"Pubblici";"Scuola Giuseppe Mazzini";"12.4911398773";"Via delle Carine, 2";"752";"41.8919674884";"Roma";
"Pubblici";"Scuola Ilaria Alpi";"12.0926860000";"Via Varsavia 1";"753";"41.9580760000";"Ladispoli";
"Privati federati";"Scuola Ilaria Alpi";"12.0928000000";"Via Varsavia, 5";"754";"41.9581000000";"Ladispoli";
"Pubblici";"Scuola Mahatma Gandhi";"12.5853756000";"Via Corinaldo, 41";"755";"41.9377952000";"Roma";
"Pubblici";"Scuola Mahatma Gandhi";"12.5853756000";"Via Corinaldo, 41";"756";"41.9377952000";"Roma";
"Pubblici";"Scuola Media  Di Donato";"12.5071000000";"via Bixio 83";"757";"41.8925000000";"Roma";
"Pubblici";"Scuola Media Collodi";"12.4375269000";"Via Massa Marittima, 1";"758";"41.8427954000";"Roma";
"Pubblici";"Scuola Media Collodi";"12.4375269000";"Via Massa Marittima, 1";"759";"41.8427954000";"Roma";
"Pubblici";"Scuola media Concetto Marchesi";"12.9659160000";"Via Pietro Nenni";"760";"41.8244660000";"Genazzano";
"Pubblici";"Scuola media Corrado Melone";"12.0706680000";"Piazza Giovanni Falcone";"761";"41.9551730000";"Ladispoli";
"Pubblici";"Scuola Media G.B.Vico";"12.5178624000";"Piazza Filattiera, 184";"762";"41.9581382000";"Roma";
"Pubblici";"Scuola Media Gianicolo";"12.4602833436";"Largo Oriani, snc";"763";"41.8778501749";"Roma";
"Pubblici";"Scuola Oscar Romero";"12.6199870227";"Via Calimera, 133";"764";"41.8868475164";"Roma";
"Pubblici";"Scuola Padre Pio";"12.9178000000";"villaggio rinascita";"765";"41.7771000000";"Valmontone";
"Pubblici";"Scuola Paolo Stefanelli via Pestalozzi";"12.4265124000";"Via Enrico Pestalozzi, 5";"766";"41.9354468000";"Roma";
"Pubblici";"Scuola Paolo Stefanelli via Pestalozzi";"12.4265124000";"Via Enrico Pestalozzi, 5";"767";"41.9354468000";"Roma";
"Pubblici";"Scuola Paolo Stefanelli via Taverna";"12.4283032000";"Via Giuseppe Taverna, 97";"768";"41.9392644000";"Roma";
"Pubblici";"Scuola Paolo Stefanelli via Taverna";"12.4284534037";"Via Giuseppe Taverna, 97";"769";"41.9393601681";"Roma";
"Pubblici";"Scuola per l'Infanzia Peter Pan";"12.4193769000";"Via Paolo Emilio Castagnola, 15";"770";"41.9468028000";"Roma";
"Pubblici";"Scuola Pistelli - Vaccari";"12.4652000000";"Via Monte Zebio, 33";"771";"41.9193190000";"Roma";
"Pubblici";"Scuola Pistelli - Vaccari";"12.4652207000";"Via Monte Zebio, 33";"772";"41.9188357000";"Roma";
"Pubblici";"Scuola popolare di Musica Donna Olimpia";"12.4517429000";"Via Donna Olimpia, 30";"773";"41.8785346000";"Roma";
"Pubblici";"Scuola primaria Cesare Battisti";"12.4887367000";"Piazza Damiano Sauli, 1";"774";"41.8615989000";"Roma";
"Pubblici";"Scuola primaria G.Tomassetti";"12.3818670000";"Via Cassia, 1690";"775";"42.0039330000";"Roma";
"Pubblici";"Scuola primaria G.Tomassetti";"12.3810170000";"Via Cassia, 1690";"776";"42.0042442000";"Roma";
"Pubblici";"Scuola primaria Oberdan";"12.4501732000";"Largo Alessandrina Ravizza, 2";"777";"41.8722108000";"Roma";
"Pubblici";"Scuola primaria Vulpiani";"12.8916410000";"Largo Cesare Battisti";"778";"42.0153140000";"Vicovaro";
"Pubblici";"Scuola Quartararo";"12.3440285000";"Via Portuense, 1491/93";"779";"41.8174298000";"Roma";
"Pubblici";"Scuola Quartararo";"12.3440285000";"Via Portuense, 1491/93";"780";"41.8174298000";"Roma";
"Pubblici";"Scuola Sabellico";"12.8985190000";"Via Leopardi";"781";"42.0181510000";"Vicovaro";
"Pubblici";"Scuola succursale San Benedetto";"12.5694477000";"Via dei Faggi, 151";"782";"41.8841003000";"Roma";
"Pubblici";"Scuola Winckelmann";"12.5222974000";"Piazza Giovanni Winckelmann, snc";"783";"41.9211535000";"Roma";
"Pubblici";"Sede Centrale Municipio XV";"12.4527781000";"Via Camillo Montalcini, 1";"784";"41.8499175000";"Roma";
"Pubblici";"Sede Centrale Municipio XV";"12.4527781000";"Via Camillo Montalcini, 1";"785";"41.8499175000";"Roma";
"Pubblici";"Sede Municipio II";"12.5188267000";"Via Dire Daua, 11";"786";"41.9297417000";"Roma";
"Pubblici";"Sede Municipio IV";"12.5351576000";"Piazza Sempione, 15";"787";"41.9360621000";"Roma";
"Pubblici";"Sede Municipio IV";"12.5351576000";"Piazza Sempione, 15";"788";"41.9360621000";"Roma";
"Pubblici";"Sede Municipio VI";"12.5491400000";"Via Torre Annunziata, 1";"789";"41.8909215000";"Roma";
"Pubblici";"Sede Municipio VII - URP";"12.5739473000";"Via Prenestina, 510";"790";"41.8946055000";"Roma";
"Pubblici";"Sede Municipio XI";"12.4839555000";"Via Benedetto Croce, 50";"791";"41.8414695000";"Roma";
"Pubblici";"Sede Municipio XI";"12.4947679000";"Via dei Lincei, 93";"792";"41.8540049000";"Roma";
"Pubblici";"Sede Municipio XI";"12.4846355437";"Via Benedetto Croce, 50";"793";"41.8410068891";"Roma";
"Pubblici";"Sede Municipio XII";"12.7764447000";"Via Ignazio Silone, 100";"794";"41.9489778000";"Roma";
"Pubblici";"Sede Municipio XV - Parco di Villa Bonelli";"12.4527781000";"Via Camillo Montalcini, 1";"795";"41.8499175000";"Roma";
"Pubblici";"Sede Municipio XVII";"12.4491820000";"Circonvallazione Trionfale, 19";"796";"41.9105908000";"Roma";
"Pubblici";"Sede Municipio XVII";"12.4491820000";"Circonvallazione Trionfale, 19";"797";"41.9105908000";"Roma";
"Pubblici";"Servizio Geologico Provincia di Roma";"12.4565351000";"via di Villa Pamphili 84";"798";"41.8792474000";"Roma";
"Pubblici";"Servizio Sirit Provincia di Roma";"12.4847180000";"Via IV Novembre 119";"799";"41.8971240000";"Roma";
"Privati federati";"Settembrini Vino e cucina";"12.4661950000";"Via Luigi Settembrini 25";"800";"41.9150080000";"Roma";
"Privati federati";"Soc. Coop. Sociale La Faggeta";"13.0933860000";"Via Cadorna, 59";"801";"41.9242490000";"Subiaco";
"Privati federati";"Società Sportiva Romulea";"12.5047120000";"Via Farsalo 21";"802";"41.8826150000";"Roma";
"Privati federati";"Spallanzani";"12.4577000000";"Via Portuense 292";"803";"41.8647000000";"Roma";
"Pubblici";"Sporting club Marconi";"12.4735000000";"via Pietro Blaserna 105";"804";"41.8667000000";"Roma";
"Privati federati";"Sporting Club Paradise";"12.5716000000";"Via delle Capannelle 134";"805";"41.8352000000";"Roma";
"Privati federati";"Sporting Palace";"12.5014000000";"Via Mantova 1";"806";"41.9122000000";"Roma";
"Privati federati";"Stabilimento Balneare La Spiaggia";"12.3348000000";"Lungomare Amerigo Vespucci 118";"807";"41.7068000000";"Roma";
"Privati federati";"Stabilimento Balneare La Spiaggia";"12.3196000000";"Lungomare Amerigo Vespucci 68";"808";"41.7133000000";"Roma";
"Privati federati";"Stabilimento balneare Rambla";"12.1854020000";"Via Praia A Mare";"809";"41.8771000000";"Fiumicino";
"Privati federati";"Stabilimento Lido del Carabiniere";"12.2127300000";"Viale Di Focene,480";"810";"41.8130920000";"Fiumicino";
"Pubblici";"Stardust";"12.4460848000";"Via di Decima, 72";"811";"41.8190976000";"Roma";
"Privati federati";"Stazione F.S.";"12.9227000000";"Piazza XXV Aprile";"812";"41.7746000000";"Valmontone";
"Pubblici";"Stazione Pantano";"12.7594630000";"Via Casilina";"813";"41.8382420000";"Monte Compatri";
"Pubblici";"Stazzano";"12.7252480000";"Via Ponte Delle Tavole 4";"814";"42.0801110000";"Palombara Sabina";
"Privati federati";"Studio 13 Scuola professionale per truccatori";"12.4689000000";"Piazza Cavour 13";"815";"41.9047000000";"Roma";
"Privati federati";"Studio Gabriele";"12.4874850000";"Via Giuseppe Dessì 43";"816";"41.8428130000";"Roma";
"Privati federati";"Studio Guadagno";"12.6434870000";"Via Nettunense 32";"817";"41.5950450000";"Lanuvio";
"Pubblici";"Supermercato Gespac srl";"12.4917073000";"Via Attilio Ambrosini, 184";"818";"41.8501980000";"Roma";
"Privati federati";"Tabaccomania";"12.8032080000";"Viale Mazzini 7";"819";"41.9641150000";"Tivoli";
"Privati federati";"Tavola calda";"12.4668290000";"Via Avezzana 35";"820";"41.9158000000";"Roma";
"Pubblici";"Teatro dell'Opera di Roma - Foyer";"12.4953580000";"Piazza Beniamino Gigli, 7";"821";"41.9008310000";"Roma";
"Pubblici";"Teatro dell'Opera di Roma - Ingresso Piano Terra";"12.4955280000";"Piazza Beniamino Gigli, 7";"822";"41.9007220000";"Roma";
"Pubblici";"Teatro dell'Opera di Roma - Portico Esterno";"12.4955720000";"Piazza Beniamino Gigli, 7";"823";"41.9006330000";"Roma";
"Pubblici";"Teatro dell'Opera di Roma - Sala Gialla";"12.4951750000";"Piazza Beniamino Gigli, 7";"824";"41.9008190000";"Roma";
"Pubblici";"Teatro dell'Opera di Roma - Sala Grigia";"12.4950580000";"Piazza Beniamino Gigli, 7";"825";"41.9009970000";"Roma";
"Privati federati";"Teatro India";"12.4708740000";"Via Luigi Pierantoni 6";"826";"41.8700100000";"Roma";
"Pubblici";"Teatro Marcello";"12.4799050000";"Via del Teatro Marcello";"827";"41.8925160000";"Roma";
"Pubblici";"Teatro Marcello";"12.4800240000";"Via del Teatro Marcello";"828";"41.8924920000";"Roma";
"Privati federati";"Teatro Olimpico";"12.4616000000";"piazza Gentile da Fabriano";"829";"41.9264000000";"Roma";
"Pubblici";"Tecnotown";"12.5109000000";"Via Spallanzani 1";"830";"41.9123000000";"Roma";
"Privati federati";"tennis Club Vigna di valle";"12.2272000000";"via comunale del lago";"831";"42.0812000000";"Anguillara Sabazia";
"Privati federati";"Terme Domiziane";"12.6633912000";"Via Legione Partica 13";"832";"41.7281713000";"Albano Laziale";
"Privati federati";"That?s Amore";"12.4858000000";"Via in Arcione 115";"833";"41.9021000000";"Roma";
"Pubblici";"Torre";"12.5566000000";"piazza dei consoli";"834";"41.8624000000";"Roma";
"Pubblici";"Trastevere - Ristorante Margherita";"12.4701151000";"Vicolo de' Cinque, 31";"835";"41.8913283000";"Roma";
"Pubblici";"Trattoria da Gabriele";"12.3776960000";"Via Boccea 591";"836";"41.9186010000";"Roma";
"Pubblici";"Trattoria Vernissage";"12.4758659000";"Piazza Sant'Eustachio, 59";"837";"41.8984205000";"Roma";
"Privati federati";"Tribunale - Sala udienze";"12.6811542000";"Corso Italia, 18";"838";"41.8071835000";"Frascati";
"Pubblici";"Tribunale (1°piano)";"11.8041000000";"Via Terme di Traiano";"839";"42.1011000000";"Civitavecchia";
"Pubblici";"Tribunale (2°piano)";"11.8047000000";"Via Terme di Traiano";"840";"42.1008000000";"Civitavecchia";
"Pubblici";"Tribunale (Piano terra)";"11.8038000000";"Via Terme di Traiano";"841";"42.1014000000";"Civitavecchia";
"Pubblici";"Tribunale Ordinario Civile Edificio D - Cortile Interno";"12.4652265397";"Viale Giulio Cesare, 54b";"842";"41.9116231049";"Roma";
"Pubblici";"Tribunale Ordinario Civile Edificio D - Sala Avvocati";"12.4646900979";"Viale Giulio Cesare, 54b";"843";"41.9112398649";"Roma";
"Pubblici";"Tribunale Ordinario Civile Edificio D - Sala d' attesa";"12.4649905053";"Viale Giulio Cesare, 54b";"844";"41.9114714060";"Roma";
"Pubblici";"Tribunale Ordinario Civile Edificio E - Atrio Via Lepanto";"12.4660379037";"Via Lepanto, 4";"845";"41.9117140905";"Roma";
"Pubblici";"Tribunale Ordinario Civile Edificio E - Atrio Viale Giulio Cesare";"12.4658877000";"Via Lepanto, 4";"846";"41.9118099000";"Roma";
"Pubblici";"Tribunale Ordinario Civile Edificio E - Corridoio";"12.4663892731";"Via Lepanto, 4";"847";"41.9116641897";"Roma";
"Pubblici";"Tribunale Ordinario di Roma - Aula Udienza";"12.4515280000";"Via Golametto, 12";"848";"41.9169940000";"Roma";
"Pubblici";"Tribunale Ordinario di Roma - Corridoio";"12.4516690000";"Via Golametto, 12";"849";"41.9172280000";"Roma";
"Pubblici";"Tribunale Ordinario di Roma - Sala Avvocati";"12.4515890000";"Via Golametto, 12";"850";"41.9169140000";"Roma";
"Pubblici";"Tribunali di Roma Settore Civile - Edificio E - Sala Musica";"12.4660486325";"Via Lepanto, 4";"851";"41.9124446343";"Roma";
"Pubblici";"Tribunali di Roma Settore Civile Edificio E - Sala Musica";"12.4658823356";"Via Lepanto, 4";"852";"41.9125404428";"Roma";
"Pubblici";"Uffici Comunali";"12.6189620000";"Piazza E. Berlinguer";"853";"42.0518140000";"Monterotondo";
"Pubblici";"Uffici Comunali";"11.8428570000";"Lungomare Guglielmo Marconi 101";"854";"42.0307400000";"Santa Marinella";
"Pubblici";"Uffici Comunali";"12.6378620000";"P.zza G. Garibaldi";"855";"42.0346200000";"Mentana";
"Pubblici";"Uffici Comunali";"12.6491126418";"P.zza F. Zeri N.1";"856";"42.0245563101";"Mentana";
"Pubblici";"Uffici Comunali";"12.8244990000";"Via Benedetto Croce 9";"857";"41.5954410000";"Velletri";
"Pubblici";"Uffici Comunali";"12.3106990000";"Lungomare Lutazio Catulo, 5";"858";"41.7167236000";"Roma";
"Pubblici";"Uffici Comunali";"12.9950500000";"Piazza Del Mercato";"859";"42.0843570000";"Vallinfreda";
"Pubblici";"Uffici Comunali";"12.7786420000";"Corso Della Repubblica 347";"860";"41.6883420000";"Velletri";
"Pubblici";"Uffici Comunali";"13.0873760000";"Via G.Matteotti 58";"861";"41.6036970000";"Carpineto Romano";
"Pubblici";"Uffici Comunali";"12.4978860000";"Piazza San Benedetto Da Norcia";"862";"41.6684200000";"Pomezia";
"Pubblici";"Uffici Municipio IV";"12.5218848000";"Via Flavio Andà², 12";"863";"41.9668191000";"Roma";
"Pubblici";"Uffici Municipio IV";"12.5501717000";"Via Umberto Fracchia, 45";"864";"41.9519450000";"Roma";
"Pubblici";"Uffici Municipio IV";"12.5218848000";"Via Flavio Andà², 12";"865";"41.9668191000";"Roma";
"Pubblici";"Uffici Regione";"12.7151220000";"Via Cavour, 6";"866";"41.8161040000";"Monte Porzio Catone";
"Pubblici";"Ufficio Anagrafico San Vittorino";"12.7884868000";"Via San Vittorino, 305";"867";"41.9142594000";"Roma";
"Pubblici";"Ufficio Comunicazione Provincia di Roma";"12.4845836000";"Via Tre cannelle 1b";"868";"41.8964863000";"Roma";
"Privati federati";"Unione Sportiva Dilettantistica";"12.4912130000";"Via Del Baiardo";"869";"41.9434090000";"Roma";
"Privati federati";"Unione Sportiva Dilettantistica";"12.4912130000";"Via Del Baiardo";"870";"41.9434090000";"Roma";
"Pubblici";"Università";"12.1769150000";"Piazza Mazzini";"871";"42.1041590000";"Bracciano";
"Pubblici";"URP Provincia";"12.4853200000";"Via delle tre cannelle, 1/b";"872";"41.8965280000";"Roma";
"Privati federati";"Valentino";"12.5127000000";"Via dei Luceri";"873";"41.8992000000";"Roma";
"Privati federati";"Via Roma";"12.9412380000";"via Roma 49";"874";"41.9610741000";"Ciciliano";
"Pubblici";"Vigili del Fuoco Capanelle";"12.5637416000";"Piazza Scilla, 2";"875";"41.8265864000";"Roma";
"Pubblici";"Vigili del Fuoco Capanelle";"12.5637416000";"Piazza Scilla, 2";"876";"41.8265864000";"Roma";
"Pubblici";"Vigili del Fuoco Capanelle";"12.5637416000";"Piazza Scilla, 2";"877";"41.8265864000";"Roma";
"Pubblici";"Villa Ada";"12.5071920000";"Viale del Casale della Tribuna";"878";"41.9284610000";"Roma";
"Pubblici";"Villa Ada";"12.5069660000";"Viale del Casale della Tribuna";"879";"41.9282380000";"Roma";
"Pubblici";"Villa Ada";"12.5061720000";"Viale del Casale della Tribuna";"880";"41.9348130000";"Roma";
"Pubblici";"Villa Ada";"12.5061800000";"Viale del Casale della Tribuna";"881";"41.9347230000";"Roma";
"Pubblici";"Villa Borghese - Piazza Bucarest";"12.4804100000";"Piazza Bucarest";"882";"41.9106360000";"Roma";
"Pubblici";"Villa Borghese - Piazza Bucarest";"12.4805060000";"Piazza Bucarest";"883";"41.9106360000";"Roma";
"Pubblici";"Villa Borghese - Piazza Bucarest";"12.4804410000";"Piazza Bucarest";"884";"41.9105330000";"Roma";
"Pubblici";"Villa Borghese - Piazza di Siena";"12.4878100000";"Piazza di Siena";"885";"41.9142540000";"Roma";
"Pubblici";"Villa Borghese - Piazza di Siena";"12.4875300000";"Piazza di Siena";"886";"41.9143410000";"Roma";
"Pubblici";"Villa Borghese - Piazzale dei Daini";"12.4923080000";"Piazzale dei Daini";"887";"41.9160150000";"Roma";
"Pubblici";"Villa Borghese - Piazzale dei Daini";"12.4925230000";"Piazzale dei Daini";"888";"41.9158920000";"Roma";
"Pubblici";"Villa Borghese - Via dell'Uccelliera";"12.4904430000";"Via dell'Uccelliera, 35";"889";"41.9151610000";"Roma";
"Pubblici";"Villa Borghese - Via dell'Uccelliera";"12.4901430000";"Via dell'Uccelliera, 35";"890";"41.9153610000";"Roma";
"Pubblici";"Villa Borghese - Viale Fiorello La Guardia";"12.4832370000";"Viale Fiorello La Guardia";"891";"41.9132860000";"Roma";
"Pubblici";"Villa Borghese - Viale Fiorello La Guardia";"12.4833290000";"Viale Fiorello La Guardia";"892";"41.9134840000";"Roma";
"Pubblici";"Villa Borghese - Viale Pietro Canonica";"12.4865690000";"Viale Pietro Canonica";"893";"41.9151490000";"Roma";
"Pubblici";"Villa Borghese - Viale Pietro Canonica";"12.4862920000";"Viale Pietro Canonica";"894";"41.9151720000";"Roma";
"Pubblici";"Villa Borghese - Viale Pietro Canonica";"12.4862140000";"Viale Pietro Canonica";"895";"41.9149920000";"Roma";
"Pubblici";"Villa Chigi";"12.5154628000";"Via Niccolà² Piccinni, 60";"896";"41.9312755000";"Roma";
"Pubblici";"Villa Lais";"12.5317250000";"Piazza Montecastrilli, snc";"897";"41.8758440000";"Roma";
"Pubblici";"Villa Lais";"12.5317250000";"Piazza Montecastrilli, snc";"898";"41.8758440000";"Roma";
"Pubblici";"Villa Lazzaroni - Centro Anziani";"12.5252170000";"Via Appia Nuova, 522";"899";"41.8722330000";"Roma";
"Pubblici";"Villa Lazzaroni - Sede Municipio IX";"12.5236440000";"Via Tommaso Fortifiocca, 71";"900";"41.8713440000";"Roma";
"Pubblici";"Villa Lazzaroni - Sede Municipio IX";"12.5236440000";"Via Tommaso Fortifiocca, 71";"901";"41.8713440000";"Roma";
"Pubblici";"Villa Leopardi - Centro anziani Fili D'argento";"12.5217129000";"via Makallà¨, 9";"902";"41.9274051000";"Roma";
"Pubblici";"Villa Paganini";"12.5088120000";"Viale Marco Biagi";"903";"41.9168610000";"Roma";
"Pubblici";"Villa Paganini";"12.5088380000";"Viale Marco Biagi";"904";"41.9168710000";"Roma";
"Pubblici";"Villa Pamphili";"12.4381810000";"Via Aurelia Antica";"905";"41.8890680000";"Roma";
"Pubblici";"Villa Pamphili";"12.4455650000";"Via Aurelia Antica";"906";"41.8890160000";"Roma";
"Pubblici";"Villa Pamphili";"12.4456300000";"Via Aurelia Antica";"907";"41.8889820000";"Roma";
"Pubblici";"Villa Pamphili";"12.4412630000";"Via Aurelia Antica";"908";"41.8816240000";"Roma";
"Pubblici";"Villa Pamphili";"12.4413250000";"Via Aurelia Antica";"909";"41.8815900000";"Roma";
"Pubblici";"Villa Pamphili";"12.4412740000";"Via Aurelia Antica";"910";"41.8815520000";"Roma";
"Pubblici";"Villa Torlonia";"12.5115480000";"Via Nomentana, 70";"911";"41.9155070000";"Roma";
"Pubblici";"Villa Torlonia";"12.5108050000";"via Lazzaro Spallanzani, 1";"912";"41.9133020000";"Roma";
"Pubblici";"Villa Torlonia";"12.5108210000";"via Lazzaro Spallanzani, 1";"913";"41.9132800000";"Roma";
"Pubblici";"Villa Torlonia - Centro Anziani Villa Torlonia";"12.5098307000";"Via Spallanzani, 2";"914";"41.9131848000";"Roma";
"Pubblici";"Villa Torlonia - Propileo";"12.5123992000";"Via Nomentana, 78/80";"915";"41.9167344000";"Roma";
"Privati federati";"Vineria Fabi";"12.6545300000";"Piazza Giuseppe Garibaldi 12";"916";"41.7702100000";"Marino";
"Privati federati";"Wellness Club";"12.5545000000";"Viale Rousseau 124";"917";"41.9380000000";"Roma";
"Privati federati";"WiCoffee BAR";"12.5372000000";"Via Cave di Pietralata, 25";"918";"41.9091000000";"Roma";
"Privati federati";"WOK  Parioli";"12.4847220000";"Via G. Antonelli, 39 A";"919";"41.9239340000";"Roma";
"Privati federati";"Wok Forum Termini";"12.5000920000";"Piazza Dei Cinquecento";"920";"41.9017830000";"Roma";
"Privati federati";"Wok Porte di Roma";"12.5381460000";"Via Alberto Lionello, 201";"921";"41.9760700000";"Roma";
"Privati federati";"You can Dance";"12.5195000000";"via Gadames 3A";"922";"41.9312000000";"Roma";
"Pubblici";"You Can Dance";"12.5195000000";"via Gadames 3A";"923";"41.9311000000";"Roma";
"Privati federati";"Zoomarine";"12.4529580000";"Via Casablanca";"924";"41.6316120000";"Pomezia";
"Privati federati";"Zoomarine";"12.4529580000";"Via Casablanca";"925";"41.6316120000";"Pomezia";
"Privati federati";"Zoomarine";"12.4529580000";"Via Casablanca";"926";"41.6316120000";"Pomezia";
